{"type":"FeatureCollection","features":[{"type":"Feature","properties":{"id":"node/462389677"},"geometry":{"type":"Point","coordinates":[25.335694,60.175039]}},{"type":"Feature","properties":{"id":"node/462389680"},"geometry":{"type":"Point","coordinates":[25.327274,60.174155]}},{"type":"Feature","properties":{"id":"node/480412371"},"geometry":{"type":"Point","coordinates":[25.192886,60.261933]}},{"type":"Feature","properties":{"id":"node/649291366"},"geometry":{"type":"Point","coordinates":[24.514716,60.309795]}},{"type":"Feature","properties":{"id":"node/830365343"},"geometry":{"type":"Point","coordinates":[25.352654,60.168239]}},{"type":"Feature","properties":{"id":"node/830365355"},"geometry":{"type":"Point","coordinates":[25.325416,60.173335]}},{"type":"Feature","properties":{"id":"node/830365368"},"geometry":{"type":"Point","coordinates":[25.344467,60.173397]}},{"type":"Feature","properties":{"id":"node/830365380"},"geometry":{"type":"Point","coordinates":[25.350731,60.167856]}},{"type":"Feature","properties":{"id":"node/830365386"},"geometry":{"type":"Point","coordinates":[25.332751,60.174766]}},{"type":"Feature","properties":{"id":"node/830365392"},"geometry":{"type":"Point","coordinates":[25.3521,60.168212]}},{"type":"Feature","properties":{"id":"node/830365399"},"geometry":{"type":"Point","coordinates":[25.328542,60.174247]}},{"type":"Feature","properties":{"id":"node/830365401"},"geometry":{"type":"Point","coordinates":[25.34587,60.17311]}},{"type":"Feature","properties":{"id":"node/830365403"},"geometry":{"type":"Point","coordinates":[25.325125,60.172966]}},{"type":"Feature","properties":{"id":"node/830365413"},"geometry":{"type":"Point","coordinates":[25.339432,60.175016]}},{"type":"Feature","properties":{"id":"node/830365415"},"geometry":{"type":"Point","coordinates":[25.33942,60.169286]}},{"type":"Feature","properties":{"id":"node/1354055192"},"geometry":{"type":"Point","coordinates":[25.34167,60.167992]}},{"type":"Feature","properties":{"id":"node/1423373229"},"geometry":{"type":"Point","coordinates":[24.584755,60.298462]}},{"type":"Feature","properties":{"id":"node/1659407393"},"geometry":{"type":"Point","coordinates":[24.693896,60.314349]}},{"type":"Feature","properties":{"id":"node/1659423272"},"geometry":{"type":"Point","coordinates":[24.693601,60.315133]}},{"type":"Feature","properties":{"id":"node/1672268507"},"geometry":{"type":"Point","coordinates":[24.879192,60.275111]}},{"type":"Feature","properties":{"name":"Kaivo","id":"node/1672270531"},"geometry":{"type":"Point","coordinates":[24.87134,60.282726]}},{"type":"Feature","properties":{"id":"node/1672273170"},"geometry":{"type":"Point","coordinates":[24.876207,60.274904]}},{"type":"Feature","properties":{"id":"node/1672273172"},"geometry":{"type":"Point","coordinates":[24.876186,60.274822]}},{"type":"Feature","properties":{"id":"node/1672275855"},"geometry":{"type":"Point","coordinates":[24.878823,60.273936]}},{"type":"Feature","properties":{"id":"node/1672278366"},"geometry":{"type":"Point","coordinates":[24.877111,60.274654]}},{"type":"Feature","properties":{"id":"node/2377175784"},"geometry":{"type":"Point","coordinates":[24.917094,60.13964]}},{"type":"Feature","properties":{"id":"node/2377175814"},"geometry":{"type":"Point","coordinates":[24.921682,60.140371]}},{"type":"Feature","properties":{"id":"node/2377175816"},"geometry":{"type":"Point","coordinates":[24.921627,60.140455]}},{"type":"Feature","properties":{"id":"node/2448677261"},"geometry":{"type":"Point","coordinates":[24.982759,60.179676]}},{"type":"Feature","properties":{"id":"node/2954290877"},"geometry":{"type":"Point","coordinates":[25.351328,60.167733]}},{"type":"Feature","properties":{"id":"node/2954290878"},"geometry":{"type":"Point","coordinates":[25.342689,60.167891]}},{"type":"Feature","properties":{"id":"node/2954290879"},"geometry":{"type":"Point","coordinates":[25.348786,60.168002]}},{"type":"Feature","properties":{"id":"node/2954290890"},"geometry":{"type":"Point","coordinates":[25.344612,60.168368]}},{"type":"Feature","properties":{"id":"node/2954290894"},"geometry":{"type":"Point","coordinates":[25.353796,60.168408]}},{"type":"Feature","properties":{"id":"node/2954291756"},"geometry":{"type":"Point","coordinates":[25.352577,60.169823]}},{"type":"Feature","properties":{"id":"node/2954291770"},"geometry":{"type":"Point","coordinates":[25.349934,60.171796]}},{"type":"Feature","properties":{"id":"node/2954291805"},"geometry":{"type":"Point","coordinates":[25.324879,60.172678]}},{"type":"Feature","properties":{"id":"node/2954291831"},"geometry":{"type":"Point","coordinates":[25.32589,60.174056]}},{"type":"Feature","properties":{"id":"node/2988433073"},"geometry":{"type":"Point","coordinates":[24.999317,60.207214]}},{"type":"Feature","properties":{"id":"node/3101808529"},"geometry":{"type":"Point","coordinates":[24.971544,60.248701]}},{"type":"Feature","properties":{"id":"node/3107523633"},"geometry":{"type":"Point","coordinates":[24.973224,60.248443]}},{"type":"Feature","properties":{"id":"node/3107603643"},"geometry":{"type":"Point","coordinates":[24.97222,60.247695]}},{"type":"Feature","properties":{"id":"node/3107721894"},"geometry":{"type":"Point","coordinates":[24.972169,60.247241]}},{"type":"Feature","properties":{"id":"node/3413264669"},"geometry":{"type":"Point","coordinates":[24.883712,60.146675]}},{"type":"Feature","properties":{"id":"node/3708442212"},"geometry":{"type":"Point","coordinates":[24.85334,60.213775]}},{"type":"Feature","properties":{"id":"node/4056445513"},"geometry":{"type":"Point","coordinates":[24.651573,60.280082]}},{"type":"Feature","properties":{"id":"node/4117002614"},"geometry":{"type":"Point","coordinates":[25.318459,60.284991]}},{"type":"Feature","properties":{"id":"node/4844402877"},"geometry":{"type":"Point","coordinates":[24.876606,60.144922]}},{"type":"Feature","properties":{"id":"node/4947099594"},"geometry":{"type":"Point","coordinates":[24.884585,60.146807]}},{"type":"Feature","properties":{"id":"node/4947099596"},"geometry":{"type":"Point","coordinates":[24.887884,60.146221]}},{"type":"Feature","properties":{"id":"node/4947099615"},"geometry":{"type":"Point","coordinates":[24.875405,60.144877]}},{"type":"Feature","properties":{"id":"node/4947100226"},"geometry":{"type":"Point","coordinates":[24.875478,60.145484]}},{"type":"Feature","properties":{"id":"node/4947100227"},"geometry":{"type":"Point","coordinates":[24.874392,60.145568]}},{"type":"Feature","properties":{"id":"node/5405727476"},"geometry":{"type":"Point","coordinates":[24.911339,60.171655]}},{"type":"Feature","properties":{"id":"node/5941193183"},"geometry":{"type":"Point","coordinates":[25.003857,60.139726]}},{"type":"Feature","properties":{"id":"node/6641011868"},"geometry":{"type":"Point","coordinates":[25.006296,60.137441]}},{"type":"Feature","properties":{"id":"node/6698889668"},"geometry":{"type":"Point","coordinates":[25.120201,60.207481]}},{"type":"Feature","properties":{"id":"node/6833561356"},"geometry":{"type":"Point","coordinates":[25.318894,60.285242]}},{"type":"Feature","properties":{"id":"node/6833561357"},"geometry":{"type":"Point","coordinates":[25.318175,60.285956]}},{"type":"Feature","properties":{"id":"node/6867613547"},"geometry":{"type":"Point","coordinates":[25.177755,60.207572]}},{"type":"Feature","properties":{"id":"node/7052873987"},"geometry":{"type":"Point","coordinates":[24.956751,60.313941]}},{"type":"Feature","properties":{"id":"node/7052873988"},"geometry":{"type":"Point","coordinates":[24.95749,60.314283]}},{"type":"Feature","properties":{"id":"node/7052873989"},"geometry":{"type":"Point","coordinates":[24.958914,60.31489]}},{"type":"Feature","properties":{"name":"Pirttimäen juomavesipiste","id":"node/7752562548"},"geometry":{"type":"Point","coordinates":[24.650384,60.269989]}},{"type":"Feature","properties":{"id":"node/7795592753"},"geometry":{"type":"Point","coordinates":[24.87328,60.145361]}},{"type":"Feature","properties":{"id":"node/8791267357"},"geometry":{"type":"Point","coordinates":[25.168348,60.225205]}},{"type":"Feature","properties":{"name":"Keskusta-alueen vesiposti","seasonal":"spring;summer;autumn","id":"node/8912212607"},"geometry":{"type":"Point","coordinates":[24.469659,60.122298]}},{"type":"Feature","properties":{"id":"node/8923319963"},"geometry":{"type":"Point","coordinates":[25.004198,60.139791]}},{"type":"Feature","properties":{"id":"node/8923319975"},"geometry":{"type":"Point","coordinates":[25.009629,60.136278]}},{"type":"Feature","properties":{"id":"node/8930181829"},"geometry":{"type":"Point","coordinates":[25.009017,60.13749]}},{"type":"Feature","properties":{"id":"node/9333407117"},"geometry":{"type":"Point","coordinates":[24.968702,60.317372]}},{"type":"Feature","properties":{"id":"node/9815426961"},"geometry":{"type":"Point","coordinates":[24.660399,60.240621]}},{"type":"Feature","properties":{"id":"node/9915351948"},"geometry":{"type":"Point","coordinates":[25.055443,60.104735]}},{"type":"Feature","properties":{"name":"HSY vesiposti: Luuvantie 1","seasonal":"spring;summer;autumn","id":"node/9955615604"},"geometry":{"type":"Point","coordinates":[24.773143,60.238943]}},{"type":"Feature","properties":{"name":"HSY vesiposti: Läkkisepänkuja 1","seasonal":"spring;summer;autumn","id":"node/9955615605"},"geometry":{"type":"Point","coordinates":[24.811973,60.220645]}},{"type":"Feature","properties":{"name":"HSY vesiposti: Impilahdentie 18","seasonal":"spring;summer;autumn","id":"node/9955615606"},"geometry":{"type":"Point","coordinates":[24.808527,60.209365]}},{"type":"Feature","properties":{"name":"HSY vesiposti: Kaupinkalliontie 10","seasonal":"spring;summer;autumn","id":"node/9955615607"},"geometry":{"type":"Point","coordinates":[24.803048,60.177501]}},{"type":"Feature","properties":{"name":"HSY vesiposti: Iltayönpolku","seasonal":"spring;summer;autumn","id":"node/9955615609"},"geometry":{"type":"Point","coordinates":[24.731593,60.171249]}},{"type":"Feature","properties":{"name":"HSY vesiposti: Mustanlahdentie 15a","seasonal":"spring;summer;autumn","id":"node/9955615610"},"geometry":{"type":"Point","coordinates":[24.5828,60.170655]}},{"type":"Feature","properties":{"name":"HSY vesiposti: Hanikka 18a","seasonal":"spring;summer;autumn","id":"node/9955615611"},"geometry":{"type":"Point","coordinates":[24.682845,60.133935]}},{"type":"Feature","properties":{"name":"HSY vesiposti: Rintamaantie 3a","seasonal":"spring;summer;autumn","id":"node/9955615612"},"geometry":{"type":"Point","coordinates":[24.631343,60.216249]}},{"type":"Feature","properties":{"name":"HSY vesiposti: Kattilalaaksontie","seasonal":"spring;summer;autumn","id":"node/9955615613"},"geometry":{"type":"Point","coordinates":[24.642132,60.157924]}},{"type":"Feature","properties":{"name":"HSY vesiposti: Ruukinmestarintie 10","seasonal":"spring;summer;autumn","id":"node/9955615614"},"geometry":{"type":"Point","coordinates":[24.626998,60.16105]}},{"type":"Feature","properties":{"name":"HSY vesiposti: Taavilankuja 3","seasonal":"spring;summer;autumn","id":"node/9955615615"},"geometry":{"type":"Point","coordinates":[24.756399,60.198145]}},{"type":"Feature","properties":{"name":"HSY vesiposti: Åminnenmäki 2","seasonal":"spring;summer;autumn","id":"node/9955615616"},"geometry":{"type":"Point","coordinates":[24.594882,60.18223]}},{"type":"Feature","properties":{"name":"HSY vesiposti: Kamreerintie 3","seasonal":"spring;summer;autumn","id":"node/9955629217"},"geometry":{"type":"Point","coordinates":[24.656604,60.204689]}},{"type":"Feature","properties":{"name":"HSY vesiposti: Suopurontie 9c","seasonal":"spring;summer;autumn","id":"node/9955629218"},"geometry":{"type":"Point","coordinates":[24.73988,60.286273]}},{"type":"Feature","properties":{"name":"HSY vesiposti: Jupperinkuja 14","seasonal":"spring;summer;autumn","id":"node/9955629219"},"geometry":{"type":"Point","coordinates":[24.778317,60.249684]}},{"type":"Feature","properties":{"name":"HSY vesiposti: Karpintie 4","seasonal":"spring;summer;autumn","id":"node/9955629220"},"geometry":{"type":"Point","coordinates":[24.691449,60.141931]}},{"type":"Feature","properties":{"name":"HSY vesiposti: Laaksolahdentie 63","seasonal":"spring;summer;autumn","id":"node/9955629221"},"geometry":{"type":"Point","coordinates":[24.769292,60.252051]}},{"type":"Feature","properties":{"name":"HSY vesiposti: Nuottaniementie 15","seasonal":"spring;summer;autumn","id":"node/9955629222"},"geometry":{"type":"Point","coordinates":[24.741968,60.148007]}},{"type":"Feature","properties":{"name":"HSY vesiposti: Telamäenkuja 5","seasonal":"spring;summer;autumn","id":"node/9955629223"},"geometry":{"type":"Point","coordinates":[24.763565,60.165752]}},{"type":"Feature","properties":{"name":"HSY vesiposti: Sotilastorpantie 1","seasonal":"spring;summer;autumn","id":"node/9955629224"},"geometry":{"type":"Point","coordinates":[24.831884,60.241]}},{"type":"Feature","properties":{"name":"HSY vesiposti: Nupurintie 12","seasonal":"spring;summer;autumn","id":"node/9955629225"},"geometry":{"type":"Point","coordinates":[24.595449,60.238059]}},{"type":"Feature","properties":{"name":"HSY vesiposti: Paciuksenmäki 2","seasonal":"spring;summer;autumn","id":"node/9955629226"},"geometry":{"type":"Point","coordinates":[24.690524,60.240013]}},{"type":"Feature","properties":{"name":"HSY vesiposti: Anfallintie 28","seasonal":"spring;summer;autumn","id":"node/9955629227"},"geometry":{"type":"Point","coordinates":[24.719317,60.275121]}},{"type":"Feature","properties":{"name":"HSY vesiposti: Kottaraisentie 9","seasonal":"spring;summer;autumn","id":"node/9955629228"},"geometry":{"type":"Point","coordinates":[24.808934,60.236073]}},{"type":"Feature","properties":{"name":"HSY vesiposti: Purolehto 2","seasonal":"spring;summer;autumn","id":"node/9955629229"},"geometry":{"type":"Point","coordinates":[24.750552,60.278516]}},{"type":"Feature","properties":{"name":"HSY vesiposti: Lasilaakso 3","seasonal":"spring;summer;autumn","id":"node/9955629230"},"geometry":{"type":"Point","coordinates":[24.578229,60.182715]}},{"type":"Feature","properties":{"name":"HSY vesiposti: Karhusuonkuja 2","seasonal":"spring;summer;autumn","id":"node/9955629231"},"geometry":{"type":"Point","coordinates":[24.629925,60.225348]}},{"type":"Feature","properties":{"name":"HSY vesiposti: Espoonlahdenkatu 7","seasonal":"spring;summer;autumn","id":"node/9955629232"},"geometry":{"type":"Point","coordinates":[24.656108,60.150233]}},{"type":"Feature","properties":{"name":"HSY vesiposti: Huhtamäentie 13","seasonal":"spring;summer;autumn","id":"node/9955629233"},"geometry":{"type":"Point","coordinates":[24.718206,60.328162]}},{"type":"Feature","properties":{"name":"HSY vesiposti: Suohaukantie 2","seasonal":"spring;summer;autumn","id":"node/9955629234"},"geometry":{"type":"Point","coordinates":[24.764759,60.228963]}},{"type":"Feature","properties":{"name":"HSY vesiposti: Karviaistie 3","seasonal":"spring;summer;autumn","id":"node/9955629235"},"geometry":{"type":"Point","coordinates":[25.007873,60.246699]}},{"type":"Feature","properties":{"name":"HSY vesiposti: Pitkäsentie 10","seasonal":"spring;summer;autumn","id":"node/9955629239"},"geometry":{"type":"Point","coordinates":[25.095416,60.275566]}},{"type":"Feature","properties":{"name":"HSY vesiposti: Rajatie 47","seasonal":"spring;summer;autumn","id":"node/9955629240"},"geometry":{"type":"Point","coordinates":[25.091642,60.271579]}},{"type":"Feature","properties":{"name":"HSY vesiposti: Rosenlundintie 1","seasonal":"spring;summer;autumn","id":"node/9955629242"},"geometry":{"type":"Point","coordinates":[25.062724,60.310504]}},{"type":"Feature","properties":{"name":"HSY vesiposti: Toivonrinne 1","seasonal":"spring;summer;autumn","id":"node/9955629243"},"geometry":{"type":"Point","coordinates":[24.78675,60.288307]}},{"type":"Feature","properties":{"name":"HSY vesiposti: Keimolantie 29","seasonal":"spring;summer;autumn","id":"node/9955629244"},"geometry":{"type":"Point","coordinates":[24.843228,60.319409]}},{"type":"Feature","properties":{"name":"HSY vesiposti: Ylästöntie 71","seasonal":"spring;summer;autumn","id":"node/9955629245"},"geometry":{"type":"Point","coordinates":[24.927975,60.280831]}},{"type":"Feature","properties":{"name":"HSY vesiposti: Karhuniityntie 1","seasonal":"spring;summer;autumn","id":"node/9955629246"},"geometry":{"type":"Point","coordinates":[24.910778,60.279605]}},{"type":"Feature","properties":{"name":"HSY vesiposti: Koivurinne 9b","seasonal":"spring;summer;autumn","id":"node/9955629249"},"geometry":{"type":"Point","coordinates":[24.78554,60.290581]}},{"type":"Feature","properties":{"name":"HSY vesiposti: Kangasmäki 3","seasonal":"spring;summer;autumn","id":"node/9955629250"},"geometry":{"type":"Point","coordinates":[24.863976,60.327607]}},{"type":"Feature","properties":{"name":"HSY vesiposti: Iso Mustasaari C31","seasonal":"spring;summer;autumn","id":"node/9955629251"},"geometry":{"type":"Point","coordinates":[24.986345,60.147025]}},{"type":"Feature","properties":{"name":"HSY vesiposti: Iso Mustasaari C45","seasonal":"spring;summer;autumn","id":"node/9955629252"},"geometry":{"type":"Point","coordinates":[24.985286,60.148258]}},{"type":"Feature","properties":{"name":"HSY vesiposti: Takilatie 4","seasonal":"spring;summer;autumn","id":"node/9955629253"},"geometry":{"type":"Point","coordinates":[25.062596,60.164226]}},{"type":"Feature","properties":{"name":"HSY vesiposti: Hepokalliontie 25","seasonal":"spring;summer;autumn","id":"node/9955629254"},"geometry":{"type":"Point","coordinates":[25.079168,60.169858]}},{"type":"Feature","properties":{"name":"HSY vesiposti: Pohjoiskaari 25","seasonal":"spring;summer;autumn","id":"node/9955629256"},"geometry":{"type":"Point","coordinates":[24.887688,60.163714]}},{"type":"Feature","properties":{"name":"HSY vesiposti: Hiekkarannantie 15","seasonal":"spring;summer;autumn","id":"node/9955629257"},"geometry":{"type":"Point","coordinates":[24.904502,60.172493]}},{"type":"Feature","properties":{"name":"HSY vesiposti: Sandelsinkatu 1","seasonal":"spring;summer;autumn","id":"node/9955629258"},"geometry":{"type":"Point","coordinates":[24.923925,60.178846]}},{"type":"Feature","properties":{"name":"HSY vesiposti: Fredrikintori","seasonal":"spring;summer;autumn","id":"node/9955629259"},"geometry":{"type":"Point","coordinates":[24.939855,60.162145]}},{"type":"Feature","properties":{"name":"HSY vesiposti: Kauppatori","seasonal":"spring;summer;autumn","id":"node/9955629260"},"geometry":{"type":"Point","coordinates":[24.954145,60.167409]}},{"type":"Feature","properties":{"name":"HSY vesiposti: Kivihaankuja 2b","seasonal":"spring;summer;autumn","id":"node/9955629263"},"geometry":{"type":"Point","coordinates":[24.900345,60.209113]}},{"type":"Feature","properties":{"name":"HSY vesiposti: Kyläkirkontie 18","seasonal":"spring;summer;autumn","id":"node/9955629264"},"geometry":{"type":"Point","coordinates":[24.842478,60.224975]}},{"type":"Feature","properties":{"name":"HSY vesiposti: Niittyläntie 12","seasonal":"spring;summer;autumn","id":"node/9955629265"},"geometry":{"type":"Point","coordinates":[24.93456,60.221494]}},{"type":"Feature","properties":{"name":"HSY vesiposti: Korkeakoskenkuja 1","seasonal":"spring;summer;autumn","id":"node/9955629266"},"geometry":{"type":"Point","coordinates":[25.109213,60.217806]}},{"type":"Feature","properties":{"name":"HSY vesiposti: Lappeentie 10","seasonal":"spring;summer;autumn","id":"node/9955629267"},"geometry":{"type":"Point","coordinates":[25.102705,60.220575]}},{"type":"Feature","properties":{"name":"HSY vesiposti: Puolimatkanpolku 13","seasonal":"spring;summer;autumn","id":"node/9955629268"},"geometry":{"type":"Point","coordinates":[25.099309,60.222224]}},{"type":"Feature","properties":{"name":"HSY vesiposti: Tattariharjuntie 26","seasonal":"spring;summer;autumn","id":"node/9955629269"},"geometry":{"type":"Point","coordinates":[25.038879,60.24418]}},{"type":"Feature","properties":{"name":"HSY vesiposti: Ylä-Malmin tori","seasonal":"spring;summer;autumn","id":"node/9955629270"},"geometry":{"type":"Point","coordinates":[25.00926,60.252176]}},{"type":"Feature","properties":{"name":"HSY vesiposti: Tattariharjuntie 51","seasonal":"spring;summer;autumn","id":"node/9955629271"},"geometry":{"type":"Point","coordinates":[25.064245,60.259083]}},{"type":"Feature","properties":{"name":"HSY vesiposti: Aapontie 1","seasonal":"spring;summer;autumn","id":"node/9955629272"},"geometry":{"type":"Point","coordinates":[25.02186,60.264841]}},{"type":"Feature","properties":{"name":"HSY vesiposti: Veljestentie 7","seasonal":"spring;summer;autumn","id":"node/9955629273"},"geometry":{"type":"Point","coordinates":[25.029452,60.266142]}},{"type":"Feature","properties":{"name":"HSY vesiposti: Kimalaiskuja 1","seasonal":"spring;summer;autumn","id":"node/9955629274"},"geometry":{"type":"Point","coordinates":[25.040743,60.271514]}},{"type":"Feature","properties":{"id":"node/10596466109"},"geometry":{"type":"Point","coordinates":[24.880568,60.146691]}},{"type":"Feature","properties":{"id":"node/10596466110"},"geometry":{"type":"Point","coordinates":[24.880282,60.146763]}},{"type":"Feature","properties":{"id":"node/10596466123"},"geometry":{"type":"Point","coordinates":[24.880839,60.146822]}},{"type":"Feature","properties":{"id":"node/10663395039"},"geometry":{"type":"Point","coordinates":[24.855472,60.153724]}},{"type":"Feature","properties":{"id":"node/10664131464"},"geometry":{"type":"Point","coordinates":[24.854508,60.154633]}},{"type":"Feature","properties":{"id":"node/10664131465"},"geometry":{"type":"Point","coordinates":[24.854499,60.154765]}},{"type":"Feature","properties":{"id":"node/10664131501"},"geometry":{"type":"Point","coordinates":[24.855152,60.154728]}},{"type":"Feature","properties":{"id":"node/10686543768"},"geometry":{"type":"Point","coordinates":[24.85437,60.154894]}},{"type":"Feature","properties":{"id":"node/10693485114"},"geometry":{"type":"Point","coordinates":[24.855651,60.155387]}},{"type":"Feature","properties":{"id":"node/10693594117"},"geometry":{"type":"Point","coordinates":[24.856748,60.15464]}},{"type":"Feature","properties":{"id":"node/10693614552"},"geometry":{"type":"Point","coordinates":[24.855476,60.153744]}},{"type":"Feature","properties":{"id":"node/10693614560"},"geometry":{"type":"Point","coordinates":[24.855772,60.153712]}},{"type":"Feature","properties":{"id":"node/10693668320"},"geometry":{"type":"Point","coordinates":[24.859962,60.154185]}},{"type":"Feature","properties":{"id":"node/10702172063"},"geometry":{"type":"Point","coordinates":[24.857028,60.152667]}},{"type":"Feature","properties":{"id":"node/10702211964"},"geometry":{"type":"Point","coordinates":[24.859891,60.153598]}},{"type":"Feature","properties":{"id":"node/10702220710"},"geometry":{"type":"Point","coordinates":[24.859351,60.153012]}},{"type":"Feature","properties":{"id":"node/10702253601"},"geometry":{"type":"Point","coordinates":[24.858332,60.154077]}},{"type":"Feature","properties":{"id":"node/10712733280"},"geometry":{"type":"Point","coordinates":[24.873706,60.145887]}},{"type":"Feature","properties":{"id":"node/10719816033"},"geometry":{"type":"Point","coordinates":[24.857936,60.154055]}},{"type":"Feature","properties":{"id":"node/10719816034"},"geometry":{"type":"Point","coordinates":[24.85758,60.154225]}},{"type":"Feature","properties":{"id":"node/10719822227"},"geometry":{"type":"Point","coordinates":[24.856035,60.153979]}},{"type":"Feature","properties":{"id":"node/10737866630"},"geometry":{"type":"Point","coordinates":[24.856834,60.153829]}},{"type":"Feature","properties":{"id":"node/10739099534"},"geometry":{"type":"Point","coordinates":[24.855864,60.155213]}},{"type":"Feature","properties":{"id":"node/10739099537"},"geometry":{"type":"Point","coordinates":[24.855567,60.155264]}},{"type":"Feature","properties":{"id":"node/10769239908"},"geometry":{"type":"Point","coordinates":[24.855183,60.155921]}},{"type":"Feature","properties":{"id":"node/10769239911"},"geometry":{"type":"Point","coordinates":[24.854823,60.155785]}},{"type":"Feature","properties":{"id":"node/10769239913"},"geometry":{"type":"Point","coordinates":[24.853154,60.155146]}},{"type":"Feature","properties":{"id":"node/10861811873"},"geometry":{"type":"Point","coordinates":[24.872618,60.146114]}},{"type":"Feature","properties":{"id":"node/10861811877"},"geometry":{"type":"Point","coordinates":[24.872987,60.146162]}},{"type":"Feature","properties":{"id":"node/10861811887"},"geometry":{"type":"Point","coordinates":[24.873742,60.146386]}},{"type":"Feature","properties":{"name":"HSY vesiposti: Ryttars","seasonal":"spring;summer;autumn","id":"node/10922039422"},"geometry":{"type":"Point","coordinates":[24.571581,60.196811]}},{"type":"Feature","properties":{"id":"node/10970967697"},"geometry":{"type":"Point","coordinates":[24.492881,60.326739]}},{"type":"Feature","properties":{"id":"node/10980522678"},"geometry":{"type":"Point","coordinates":[24.514391,60.309269]}},{"type":"Feature","properties":{"id":"node/10984875687"},"geometry":{"type":"Point","coordinates":[24.884985,60.183093]}},{"type":"Feature","properties":{"id":"node/11016684786"},"geometry":{"type":"Point","coordinates":[25.113822,60.313626]}},{"type":"Feature","properties":{"id":"node/11052941432"},"geometry":{"type":"Point","coordinates":[25.155297,60.212752]}},{"type":"Feature","properties":{"name":"HSY vesiposti: Osumapuisto","seasonal":"spring;summer;autumn","id":"node/11065452672"},"geometry":{"type":"Point","coordinates":[24.936109,60.296895]}},{"type":"Feature","properties":{"id":"node/11067205035"},"geometry":{"type":"Point","coordinates":[24.52324,60.265336]}},{"type":"Feature","properties":{"id":"node/11102465506"},"geometry":{"type":"Point","coordinates":[24.966351,60.318332]}},{"type":"Feature","properties":{"id":"node/11710928869"},"geometry":{"type":"Point","coordinates":[24.968656,60.318814]}},{"type":"Feature","properties":{"id":"node/11987574785"},"geometry":{"type":"Point","coordinates":[25.108651,60.209543]}},{"type":"Feature","properties":{"id":"node/12020576559"},"geometry":{"type":"Point","coordinates":[24.9855,60.179856]}},{"type":"Feature","properties":{"seasonal":"spring;summer;autumn","id":"node/12070079916"},"geometry":{"type":"Point","coordinates":[24.899822,60.26179]}},{"type":"Feature","properties":{"name":"Kalkkirannan juomavesi","seasonal":"spring;summer;autumn","id":"node/12072254745"},"geometry":{"type":"Point","coordinates":[25.390963,60.252848]}},{"type":"Feature","properties":{"id":"node/12205635559"},"geometry":{"type":"Point","coordinates":[24.913214,60.232663]}},{"type":"Feature","properties":{"id":"node/12787818613"},"geometry":{"type":"Point","coordinates":[24.964523,60.313947]}},{"type":"Feature","properties":{"id":"node/12989913039"},"geometry":{"type":"Point","coordinates":[24.913274,60.234467]}},{"type":"Feature","properties":{"id":"node/13011963623"},"geometry":{"type":"Point","coordinates":[24.674326,60.105833]}},{"type":"Feature","properties":{"seasonal":"no","id":"node/13017266401"},"geometry":{"type":"Point","coordinates":[24.938033,60.173971]}},{"type":"Feature","properties":{"id":"node/13065022902"},"geometry":{"type":"Point","coordinates":[25.116894,60.207415]}},{"type":"Feature","properties":{"id":"node/13232578962"},"geometry":{"type":"Point","coordinates":[24.96737,60.318534]}},{"type":"Feature","properties":{"id":"node/13264480614"},"geometry":{"type":"Point","coordinates":[24.565834,60.099437]}},{"type":"Feature","properties":{"id":"node/13719481476"},"geometry":{"type":"Point","coordinates":[24.97135,60.316079]}},{"type":"Feature","properties":{"id":"node/13860317150"},"geometry":{"type":"Point","coordinates":[24.941222,60.204532]}}]}