{"type":"FeatureCollection","features":[{"type":"Feature","properties":{"name":"Arabianbaana","ref":"7"},"geometry":{"type":"MultiLineString","coordinates":[[[24.984808,60.214177],[24.984872,60.21419],[24.984917,60.214215],[24.984947,60.214231]],[[24.986161,60.214889],[24.986062,60.214838],[24.985731,60.214655],[24.985678,60.214626],[24.985099,60.214314],[24.984947,60.214231]],[[24.987181,60.215769],[24.987024,60.21564],[24.986852,60.215488],[24.986528,60.215162],[24.986509,60.215145],[24.986392,60.215038],[24.986271,60.214958],[24.986161,60.214889]],[[24.987408,60.21593],[24.987307,60.215864],[24.987282,60.215848],[24.987181,60.215769]],[[24.987918,60.216253],[24.987804,60.216173],[24.987572,60.216028],[24.987408,60.21593]],[[24.988474,60.217027],[24.98854,60.216968],[24.988509,60.216891],[24.988459,60.216787],[24.988248,60.216521],[24.98803,60.216331],[24.987918,60.216253]],[[24.982005,60.187687],[24.982072,60.187741],[24.982102,60.187836],[24.981974,60.188429],[24.981966,60.188469],[24.981896,60.188806],[24.98189,60.188838],[24.981674,60.189819],[24.981661,60.189889],[24.981541,60.189939]],[[24.981541,60.189939],[24.981472,60.189887],[24.981451,60.189853],[24.981418,60.189787],[24.981415,60.189759],[24.981621,60.188823],[24.981628,60.18879],[24.981692,60.188492],[24.981701,60.188452]],[[24.981701,60.188452],[24.981789,60.188048]],[[24.981789,60.188048],[24.981793,60.188025],[24.981796,60.188012],[24.9818,60.187993]],[[24.9818,60.187993],[24.981835,60.187834],[24.981928,60.187726],[24.982005,60.187687]],[[24.982025,60.187643],[24.982005,60.187687]],[[24.982065,60.187416],[24.982131,60.187428],[24.982186,60.187449],[24.982227,60.187477],[24.982249,60.18751],[24.982249,60.187545],[24.982231,60.187576],[24.982196,60.187603],[24.982148,60.187624],[24.982089,60.187638],[24.982025,60.187643]],[[24.981853,60.187606],[24.981814,60.187578],[24.981794,60.187546],[24.981794,60.187511],[24.981814,60.187479],[24.981852,60.187452],[24.981903,60.187431],[24.981954,60.187419],[24.982009,60.187414],[24.982065,60.187416]],[[24.982025,60.187643],[24.981962,60.187639],[24.981903,60.187626],[24.981853,60.187606]],[[24.981838,60.187376],[24.981903,60.187431]],[[24.974262,60.183793],[24.97431,60.183817],[24.974347,60.183836],[24.974373,60.183862],[24.974386,60.183874],[24.974509,60.183942],[24.974581,60.183984]],[[24.974581,60.183984],[24.97471,60.184024],[24.974793,60.184051],[24.974876,60.184083]],[[24.974876,60.184083],[24.974932,60.184091],[24.974969,60.184108],[24.97501,60.184131],[24.975517,60.184412],[24.97561,60.184464]],[[24.97561,60.184464],[24.975851,60.184598]],[[24.975851,60.184598],[24.975946,60.184625],[24.976096,60.184672],[24.976245,60.184709],[24.976384,60.18474]]]}},{"type":"Feature","properties":{"name":"Haaganbaana"},"geometry":{"type":"MultiLineString","coordinates":[[[24.880285,60.206463],[24.880253,60.206536]],[[24.880253,60.206536],[24.880239,60.206575],[24.88023,60.206605],[24.880223,60.206628],[24.880214,60.206657],[24.880206,60.206679]],[[24.880206,60.206679],[24.880185,60.206735],[24.880179,60.206767]],[[24.880179,60.206767],[24.880149,60.206771],[24.880105,60.206776],[24.880058,60.206787]],[[24.880058,60.206787],[24.880029,60.206865]],[[24.886948,60.215037],[24.886715,60.214931],[24.886506,60.214825],[24.886426,60.21478],[24.88639,60.214756],[24.886296,60.214716],[24.886176,60.214682],[24.886038,60.214654],[24.885961,60.214647],[24.885869,60.214647],[24.88577,60.214652],[24.885498,60.214718]],[[24.888164,60.21575],[24.888037,60.215662],[24.887894,60.215563],[24.887741,60.215455],[24.887516,60.215312],[24.887265,60.215172],[24.887132,60.215107],[24.886948,60.215037]],[[24.889341,60.21658],[24.889189,60.216459],[24.888345,60.215876],[24.888164,60.21575]],[[24.889367,60.2166],[24.889341,60.21658]],[[24.889613,60.216778],[24.889583,60.216759],[24.889519,60.216711],[24.889451,60.216663],[24.889367,60.2166]],[[24.889962,60.216987],[24.889737,60.216856],[24.889613,60.216778]],[[24.890556,60.217382],[24.889962,60.216987]],[[24.890642,60.217448],[24.890556,60.217382]],[[24.890777,60.217539],[24.890766,60.217532],[24.890755,60.217525],[24.89071,60.217493],[24.890651,60.217454],[24.890642,60.217448]],[[24.890777,60.217539],[24.890797,60.217552],[24.891418,60.217984]],[[24.891418,60.217984],[24.891742,60.218214],[24.891765,60.218241],[24.891781,60.218319],[24.891789,60.218336],[24.89182,60.21836]],[[24.89182,60.21836],[24.892067,60.218533]],[[24.892067,60.218533],[24.892271,60.218674],[24.892642,60.218931]],[[24.892642,60.218931],[24.892727,60.218983]],[[24.892727,60.218983],[24.892311,60.219189],[24.892212,60.219215],[24.892123,60.219223],[24.892089,60.219224],[24.892062,60.219222],[24.892034,60.219218],[24.892014,60.219211],[24.89199,60.219198],[24.891946,60.219178]],[[24.882788,60.201391],[24.882862,60.201453],[24.882792,60.20158],[24.882775,60.201606],[24.882739,60.201637],[24.882662,60.20167],[24.882579,60.201698]]]}},{"type":"Feature","properties":{"name":"Itäbaana","ref":"8"},"geometry":{"type":"MultiLineString","coordinates":[[[24.950023,60.175902],[24.950005,60.175885],[24.949966,60.175873],[24.94992,60.175867],[24.949815,60.175863],[24.949518,60.175857],[24.949415,60.175854],[24.949335,60.175825],[24.94927,60.175792]],[[24.950457,60.175914],[24.950382,60.175912],[24.950284,60.175909],[24.950251,60.175908],[24.950189,60.175906],[24.95014,60.175904],[24.950023,60.175902]],[[24.951264,60.17603],[24.951031,60.175954],[24.950932,60.175936],[24.95083,60.175923],[24.950618,60.175915],[24.950457,60.175914]],[[24.954489,60.176574],[24.954026,60.176634],[24.953811,60.176646],[24.953663,60.176647],[24.953513,60.176643],[24.95339,60.176633],[24.953253,60.176615],[24.953117,60.176584],[24.953002,60.176552],[24.951427,60.176063],[24.951264,60.17603]],[[24.956746,60.176563],[24.956535,60.176562],[24.955749,60.176554],[24.955274,60.176546],[24.955021,60.176554],[24.954773,60.176585],[24.954606,60.17657],[24.954489,60.176574]],[[24.956965,60.176531],[24.956848,60.176548],[24.956746,60.176563]],[[24.958594,60.176348],[24.958575,60.176324],[24.958551,60.176304],[24.958518,60.176285],[24.958443,60.176257],[24.958411,60.176247],[24.958303,60.176239],[24.958159,60.176252],[24.958089,60.17626],[24.957947,60.176285],[24.95777,60.176322],[24.957646,60.176347],[24.957494,60.176391],[24.957301,60.176443],[24.957169,60.176478],[24.956965,60.176531]],[[24.958621,60.17639],[24.958594,60.176348]],[[24.958582,60.176463],[24.958621,60.17639]],[[24.958582,60.176463],[24.958516,60.176502],[24.95837,60.17657],[24.95827,60.176625],[24.958126,60.176724],[24.957886,60.176945],[24.957758,60.177131],[24.95769,60.177264],[24.95767,60.177322],[24.957643,60.177392],[24.957628,60.177457],[24.957616,60.177542]],[[24.957616,60.177542],[24.957606,60.177666],[24.957598,60.177724],[24.957576,60.17778],[24.957521,60.177849],[24.957458,60.177935],[24.957442,60.177986],[24.957437,60.178075],[24.957435,60.178121]],[[24.957435,60.178121],[24.957675,60.178125],[24.957853,60.178127],[24.958014,60.178131]],[[24.958014,60.178131],[24.958077,60.178134]],[[24.958077,60.178134],[24.958383,60.178137],[24.958789,60.178128],[24.9591,60.178133],[24.95939,60.178138]],[[24.95939,60.178138],[24.960456,60.178149]],[[24.960456,60.178149],[24.960631,60.178152],[24.962757,60.178183],[24.962953,60.178187],[24.962992,60.178191],[24.963259,60.178223],[24.963475,60.178248]],[[24.960456,60.178149],[24.960631,60.178152],[24.962757,60.178183],[24.962953,60.178187],[24.962992,60.178191],[24.963259,60.178223],[24.963475,60.178248]],[[24.963475,60.178248],[24.963943,60.178322],[24.964576,60.178445],[24.964868,60.1785],[24.965088,60.178534],[24.965448,60.178576]],[[24.987376,60.186178],[24.984922,60.186446]],[[24.994188,60.186166],[24.994108,60.186136],[24.994005,60.186087],[24.993872,60.186054],[24.993653,60.186017],[24.993373,60.185994],[24.992629,60.185958],[24.991581,60.185907],[24.990839,60.185907],[24.99022,60.185925],[24.98946,60.185977],[24.988392,60.186091],[24.988054,60.186102],[24.987376,60.186178]],[[24.994237,60.186179],[24.994188,60.186166]],[[24.994355,60.18619],[24.994237,60.186179]],[[24.994506,60.18616],[24.994462,60.186179],[24.994446,60.186182],[24.994408,60.186188],[24.994355,60.18619]],[[24.995231,60.186306],[24.995125,60.186297],[24.99496,60.186282],[24.99479,60.186253],[24.99471,60.186235],[24.994616,60.186205],[24.994506,60.18616]],[[24.995689,60.186346],[24.995231,60.186306]],[[24.997865,60.186673],[24.997003,60.186529],[24.996601,60.186462],[24.995966,60.186376],[24.995921,60.186371],[24.995689,60.186346]],[[25.00077,60.187532],[25.000178,60.187284],[24.999813,60.187163],[24.999392,60.187035],[24.998897,60.186909],[24.998379,60.186777],[24.997865,60.186673]],[[25.001241,60.187761],[25.001105,60.187691],[25.000978,60.18763],[25.00077,60.187532]],[[25.002001,60.188124],[25.0018,60.188026],[25.001241,60.187761]],[[25.005346,60.189068],[25.004525,60.189004],[25.00429,60.188985],[25.004252,60.188982],[25.004069,60.188966],[25.003998,60.188961],[25.003752,60.188929],[25.003583,60.188893],[25.003439,60.188842],[25.003101,60.188674],[25.002974,60.188609],[25.002403,60.188325],[25.002001,60.188124]],[[25.0058,60.189104],[25.005346,60.189068]],[[25.006055,60.189125],[25.0058,60.189104]],[[25.006932,60.18919],[25.006572,60.189164],[25.00643,60.189153],[25.006055,60.189125]],[[25.007279,60.189215],[25.007005,60.189195],[25.006932,60.18919]],[[25.012016,60.189566],[25.011453,60.189524],[25.010565,60.189456],[25.010159,60.189426],[25.009059,60.189347],[25.008276,60.189287],[25.008191,60.18928],[25.007977,60.189265],[25.007279,60.189215]],[[25.012862,60.189629],[25.012701,60.189618],[25.012316,60.189589],[25.012016,60.189566]],[[25.013032,60.189642],[25.012862,60.189629]],[[25.013305,60.189664],[25.013032,60.189642]],[[25.013428,60.189733],[25.013305,60.189664]],[[25.016842,60.19037],[25.016329,60.190213],[25.015836,60.190082],[25.015466,60.19],[25.015115,60.189932],[25.014868,60.189889],[25.014597,60.189849],[25.014236,60.189803],[25.013813,60.189767],[25.013712,60.189757],[25.013428,60.189733]],[[25.017673,60.190657],[25.016842,60.19037]],[[25.018365,60.191062],[25.018302,60.191001],[25.018193,60.190907],[25.0181,60.190845],[25.017886,60.19074],[25.017673,60.190657]],[[25.018456,60.191221],[25.018396,60.191192],[25.018355,60.191141],[25.018365,60.191062]],[[25.01884,60.191175],[25.018795,60.191201],[25.018746,60.19122],[25.018675,60.191235],[25.018591,60.191239],[25.018548,60.191237],[25.01851,60.191232],[25.018456,60.191221]],[[25.019129,60.191198],[25.018979,60.191168],[25.018907,60.19117],[25.01884,60.191175]],[[25.013032,60.189642],[25.013284,60.189608],[25.013876,60.189651],[25.014437,60.189713],[25.014712,60.18975],[25.014948,60.189787],[25.015296,60.189847],[25.015654,60.189926],[25.015908,60.189989],[25.016195,60.190067],[25.016249,60.190127]],[[25.016908,60.190323],[25.016497,60.190198],[25.016249,60.190127]],[[25.017322,60.190459],[25.016908,60.190323]],[[25.017744,60.190606],[25.017322,60.190459]],[[25.01812,60.190759],[25.017914,60.19067],[25.017744,60.190606]],[[25.01812,60.190759],[25.018293,60.190777],[25.018547,60.190883],[25.01871,60.190962],[25.01878,60.191004]],[[25.01878,60.191004],[25.018841,60.191039],[25.018867,60.191054]],[[25.018867,60.191054],[25.018951,60.191102],[25.019052,60.191157],[25.019129,60.191198]],[[25.019129,60.191198],[25.019244,60.191254]],[[25.019244,60.191254],[25.01951,60.19138],[25.021142,60.192095]],[[25.021142,60.192095],[25.021478,60.19224],[25.021956,60.192413],[25.022235,60.192506]],[[25.022235,60.192506],[25.022485,60.192583],[25.023389,60.192846],[25.024031,60.193012],[25.024162,60.193039],[25.024378,60.193085],[25.024732,60.193142],[25.025277,60.193239],[25.025502,60.193273],[25.026279,60.19341],[25.02655,60.193456],[25.02679,60.193526],[25.026958,60.193592],[25.027032,60.193632],[25.027123,60.193679],[25.027193,60.193731],[25.027259,60.193805]],[[25.02738,60.194135],[25.027361,60.193979],[25.027338,60.193923],[25.027259,60.193805]],[[25.027393,60.194414],[25.02738,60.194135]],[[25.027403,60.194594],[25.0274,60.194552],[25.027393,60.194414]],[[25.03358,60.196942],[25.033398,60.19672],[25.0333,60.19659],[25.033201,60.196488],[25.032965,60.196287],[25.032789,60.196152],[25.032689,60.196115],[25.03259,60.19611],[25.032439,60.196133],[25.032171,60.19618],[25.032148,60.196184],[25.032097,60.196176],[25.032025,60.196141]],[[25.033978,60.197161],[25.03358,60.196942]],[[25.034378,60.197484],[25.034184,60.19733],[25.033978,60.197161]],[[25.034952,60.197964],[25.034842,60.197877],[25.034629,60.197684],[25.034378,60.197484]],[[25.036491,60.199129],[25.036411,60.199063],[25.036212,60.198896],[25.035937,60.198665],[25.035822,60.198566],[25.035698,60.19846],[25.035346,60.198177],[25.035243,60.198115],[25.035039,60.198014],[25.034952,60.197964]],[[25.036785,60.199363],[25.036608,60.199219],[25.036491,60.199129]],[[25.037007,60.199564],[25.036785,60.199363]],[[25.040137,60.202358],[25.04011,60.202304],[25.040075,60.20226],[25.039742,60.201957],[25.038936,60.201265],[25.038415,60.20081],[25.037207,60.199757],[25.037079,60.199635],[25.037007,60.199564]],[[25.040633,60.202632],[25.040573,60.202647],[25.04045,60.202658],[25.040381,60.202653],[25.040293,60.202623],[25.040225,60.202574],[25.040199,60.202556],[25.040176,60.202508],[25.040137,60.202358]],[[25.040633,60.202632],[25.040831,60.202574]],[[25.040831,60.202574],[25.040904,60.202554]],[[25.040904,60.202554],[25.041448,60.2024]],[[25.041448,60.2024],[25.041761,60.202312]],[[25.077127,60.208855],[25.077865,60.208962],[25.078304,60.209036],[25.078758,60.209117],[25.078979,60.209143],[25.079197,60.209159],[25.079299,60.209163],[25.079386,60.209164],[25.079484,60.209161],[25.079564,60.209155]],[[25.079564,60.209155],[25.079718,60.209186],[25.08107,60.209558],[25.081383,60.209642],[25.081563,60.209691]],[[25.081563,60.209691],[25.081604,60.209703],[25.081689,60.209724]],[[25.081689,60.209724],[25.082016,60.209815],[25.083097,60.210115],[25.086235,60.210988],[25.086279,60.211028]],[[24.942249,60.175579],[24.942308,60.175395],[24.942352,60.175171],[24.942388,60.174985],[24.942427,60.174784],[24.942478,60.174662],[24.94258,60.1745],[24.94269,60.174366],[24.94272,60.17434],[24.942882,60.174219],[24.942961,60.174156]],[[24.942961,60.174156],[24.942998,60.174126],[24.943072,60.174036],[24.943101,60.17397],[24.943123,60.173872]],[[24.943123,60.173872],[24.943133,60.17382],[24.943205,60.17341],[24.943254,60.173134]],[[24.943254,60.173134],[24.943275,60.173024]],[[24.975851,60.184598],[24.975946,60.184625],[24.976096,60.184672],[24.976245,60.184709],[24.976384,60.18474]],[[24.97561,60.184464],[24.975851,60.184598]],[[24.974876,60.184083],[24.974932,60.184091],[24.974969,60.184108],[24.97501,60.184131],[24.975517,60.184412],[24.97561,60.184464]],[[24.974581,60.183984],[24.97471,60.184024],[24.974793,60.184051],[24.974876,60.184083]],[[24.974262,60.183793],[24.97431,60.183817],[24.974347,60.183836],[24.974373,60.183862],[24.974386,60.183874],[24.974509,60.183942],[24.974581,60.183984]]]}},{"type":"Feature","properties":{"name":"Keskuspuistonbaana","ref":"3"},"geometry":{"type":"MultiLineString","coordinates":[[[24.936464,60.172748],[24.936444,60.172793],[24.936364,60.172928],[24.936355,60.172945],[24.936122,60.173341],[24.936112,60.173357],[24.936009,60.17353],[24.935787,60.173912],[24.935703,60.174051],[24.935492,60.174411]],[[24.935492,60.174411],[24.93547,60.174475],[24.935456,60.174557]],[[24.935456,60.174557],[24.935449,60.174585],[24.935053,60.175278]],[[24.935053,60.175278],[24.934899,60.175531]],[[24.934899,60.175531],[24.934878,60.175568],[24.934892,60.175634],[24.934914,60.175778],[24.93493,60.175851],[24.934938,60.175968],[24.934926,60.176056],[24.934906,60.176129],[24.934871,60.176238],[24.934805,60.17637],[24.934716,60.176519],[24.934606,60.176663],[24.934482,60.1768],[24.934398,60.17688],[24.934386,60.176891],[24.93434,60.176927],[24.934296,60.176967],[24.934278,60.176981],[24.93425,60.176994],[24.934209,60.177005]],[[24.928392,60.184376],[24.928348,60.184489],[24.928152,60.18499],[24.927973,60.18546],[24.92799,60.185542]],[[24.92799,60.185542],[24.928021,60.185572],[24.92807,60.185614],[24.928245,60.185701]],[[24.929225,60.186745],[24.929272,60.186598],[24.929274,60.18652],[24.92927,60.186394],[24.929245,60.186272],[24.929215,60.186197],[24.929149,60.186089],[24.929033,60.186],[24.928905,60.185916],[24.928711,60.185828],[24.928665,60.185812],[24.928562,60.185778],[24.928245,60.185701]],[[24.928916,60.187543],[24.928953,60.18745],[24.929084,60.187123],[24.929225,60.186745]],[[24.928809,60.188198],[24.928808,60.188137],[24.928815,60.187957],[24.928856,60.187745],[24.928916,60.187543]],[[24.929088,60.188848],[24.929025,60.188753],[24.928965,60.188657],[24.928915,60.188573],[24.928875,60.188487],[24.928837,60.188359],[24.928834,60.188344],[24.928809,60.188198]],[[24.929156,60.189124],[24.929162,60.189035],[24.929151,60.188952],[24.929088,60.188848]],[[24.925137,60.191156],[24.924977,60.191206],[24.924832,60.191262],[24.924649,60.191343],[24.92444,60.19145],[24.924336,60.191525],[24.924239,60.191617],[24.923787,60.19221]]]}},{"type":"Feature","properties":{"name":"Kivistön-Tikkurilan-Hakunilanbaana"},"geometry":{"type":"MultiLineString","coordinates":[[[24.843346,60.313238],[24.843233,60.313195],[24.843129,60.313166],[24.842905,60.313102],[24.842755,60.31307],[24.842604,60.313037],[24.841242,60.312739],[24.841205,60.312731],[24.840704,60.312625],[24.840445,60.312569]],[[24.844295,60.313516],[24.844029,60.313392],[24.843687,60.313243],[24.843627,60.31322],[24.843555,60.313206],[24.843491,60.313203],[24.843415,60.313213],[24.843346,60.313238]],[[24.844295,60.313516],[24.846154,60.314363],[24.846412,60.314481],[24.847133,60.3148],[24.847738,60.315085],[24.848093,60.315244],[24.849487,60.315876],[24.85051,60.316307]],[[24.85051,60.316307],[24.850875,60.31645],[24.851717,60.316807],[24.852002,60.316927],[24.852122,60.316976],[24.853396,60.317516],[24.854298,60.317889],[24.8547,60.318042],[24.85527,60.318246],[24.855303,60.318256],[24.855416,60.318291],[24.85571,60.318388],[24.856241,60.31854],[24.856547,60.318622],[24.856756,60.318671],[24.85709,60.318751],[24.857434,60.318824],[24.858018,60.318942],[24.858765,60.319063],[24.859354,60.319143],[24.85986,60.319201],[24.860467,60.319254],[24.860728,60.319274],[24.861135,60.319297],[24.861534,60.319315],[24.862025,60.31933],[24.862374,60.319333],[24.862714,60.319332],[24.863133,60.319324],[24.863489,60.319313],[24.863769,60.3193],[24.864226,60.319272],[24.864348,60.319263],[24.864754,60.319231],[24.865298,60.319176],[24.865861,60.319106],[24.8664,60.319029],[24.86692,60.318939],[24.867366,60.318853],[24.867865,60.318744],[24.868344,60.318628],[24.868486,60.318606],[24.868673,60.318589],[24.868806,60.318577],[24.868905,60.318555],[24.869376,60.318431],[24.869612,60.318368],[24.870075,60.318242],[24.870155,60.318231],[24.87024,60.318234],[24.870422,60.318181],[24.870476,60.318167],[24.87075,60.318095],[24.87085,60.318085],[24.870981,60.318103]],[[25.043145,60.288722],[25.043308,60.288692],[25.043417,60.288669]],[[25.043417,60.288669],[25.043458,60.288657],[25.043538,60.288628],[25.043743,60.288504],[25.044024,60.288316],[25.044105,60.288258],[25.044174,60.288205]],[[25.044584,60.287803],[25.044174,60.288205]],[[25.044609,60.28779],[25.044584,60.287803]],[[25.044711,60.287745],[25.044665,60.287765],[25.044609,60.28779]],[[25.047501,60.286941],[25.047176,60.287076],[25.04656,60.287274],[25.046271,60.287354],[25.045557,60.287533],[25.044745,60.287735],[25.044711,60.287745]],[[25.051495,60.285461],[25.051459,60.285485],[25.051236,60.285767],[25.05007,60.286313],[25.049925,60.286361],[25.049772,60.286394],[25.049451,60.286436],[25.048734,60.286509],[25.048559,60.286532],[25.048338,60.286583],[25.047943,60.286738],[25.047501,60.286941]],[[25.057914,60.286166],[25.05798,60.286126],[25.058295,60.285965]],[[25.058295,60.285965],[25.058566,60.285843],[25.058751,60.285762]],[[25.058751,60.285762],[25.059064,60.285623],[25.059204,60.285487],[25.059357,60.285371],[25.059441,60.285324]],[[25.059441,60.285324],[25.060287,60.285165],[25.061066,60.285027],[25.061602,60.284967],[25.062003,60.284943],[25.062189,60.28493],[25.062832,60.28492],[25.063386,60.284906],[25.063654,60.284848]],[[25.067489,60.284644],[25.066913,60.284679],[25.065425,60.284735],[25.064847,60.284756],[25.064426,60.284776],[25.063993,60.284802],[25.063782,60.284827],[25.063654,60.284848]],[[25.067821,60.284618],[25.067489,60.284644]],[[25.043299,60.289637],[25.043302,60.289648]],[[25.043049,60.289092],[25.043299,60.289637]],[[25.043145,60.288722],[25.043145,60.288792],[25.04309,60.288868],[25.043043,60.288988],[25.043049,60.289045],[25.043048,60.289071],[25.043049,60.289092]]]}},{"type":"Feature","properties":{"name":"Kuusisaarenbaana"},"geometry":{"type":"MultiLineString","coordinates":[[[24.835109,60.179833],[24.834994,60.179802],[24.834957,60.179796],[24.83489,60.179784],[24.834773,60.179764],[24.83462,60.179743],[24.834464,60.179727],[24.834336,60.179721],[24.834248,60.179728]],[[24.835777,60.179959],[24.835567,60.179928],[24.835308,60.179875],[24.835109,60.179833]],[[24.882761,60.192797],[24.882838,60.192839]],[[24.882838,60.192839],[24.882876,60.192862],[24.882918,60.192888]],[[24.882918,60.192888],[24.882957,60.192918],[24.883016,60.192962],[24.88303,60.192988],[24.883044,60.193021]]]}},{"type":"Feature","properties":{"name":"Laajalahdenbaana","ref":"11"},"geometry":{"type":"MultiLineString","coordinates":[[[24.806848,60.190044],[24.806957,60.189673],[24.807046,60.189327],[24.807058,60.189285]],[[24.806166,60.19424],[24.806162,60.194188],[24.806161,60.193932],[24.806167,60.19351],[24.806182,60.193249],[24.806255,60.192631],[24.806291,60.192419],[24.806412,60.191922],[24.806414,60.191825],[24.806401,60.19174],[24.806412,60.191674],[24.806448,60.191534],[24.806557,60.191153],[24.806848,60.190044]],[[24.806166,60.19424],[24.806185,60.194361],[24.806201,60.194431],[24.806206,60.194573],[24.806207,60.194676],[24.806217,60.195393],[24.806228,60.195458],[24.806252,60.195541],[24.806271,60.195623],[24.806272,60.195883]],[[24.806272,60.195883],[24.806274,60.196069]],[[24.806274,60.196069],[24.806277,60.196437],[24.806259,60.196478],[24.806223,60.196519],[24.806202,60.196534],[24.806075,60.196622]],[[24.806075,60.196622],[24.805999,60.196692],[24.805953,60.196746],[24.805909,60.196802],[24.80588,60.196888],[24.805856,60.197006],[24.805839,60.197214],[24.805852,60.197359],[24.805891,60.197496],[24.806017,60.197768],[24.806213,60.198163],[24.806348,60.198364],[24.806454,60.1985],[24.806556,60.198628],[24.80665,60.198714],[24.806773,60.198793],[24.807113,60.198914],[24.807184,60.198939],[24.80723,60.198957],[24.807269,60.198979],[24.807311,60.199014],[24.807747,60.19945]],[[24.808152,60.200068],[24.808096,60.200028],[24.808063,60.199986],[24.808041,60.199948],[24.808021,60.199892],[24.807958,60.199717],[24.807935,60.199666],[24.807907,60.19963],[24.807879,60.199594],[24.807847,60.199556],[24.807747,60.19945]],[[24.808379,60.200213],[24.808152,60.200068]],[[24.810699,60.20169],[24.810448,60.201388],[24.810226,60.201096],[24.810151,60.201014],[24.810048,60.200931],[24.809941,60.200848],[24.809805,60.200758],[24.809629,60.200665],[24.80915,60.200432],[24.809076,60.200402],[24.809001,60.200379],[24.80888,60.200352],[24.808685,60.200313],[24.808561,60.200289],[24.808474,60.200264],[24.808423,60.20024],[24.808379,60.200213]],[[24.813006,60.202959],[24.812929,60.202859],[24.81275,60.202672],[24.812601,60.20255],[24.812452,60.202452],[24.811983,60.202224],[24.811667,60.202075],[24.811354,60.201938],[24.810878,60.201754],[24.810699,60.20169]],[[24.814623,60.20639],[24.814773,60.206241],[24.815115,60.205873],[24.815196,60.205768],[24.815215,60.205705],[24.815233,60.205561],[24.815232,60.205472],[24.815222,60.205339],[24.815202,60.20522],[24.815156,60.205044],[24.815133,60.204976],[24.815085,60.204836],[24.814975,60.20457],[24.814891,60.204442],[24.814803,60.20428],[24.81469,60.204097],[24.814549,60.203896],[24.81438,60.203692],[24.81433,60.203645],[24.814252,60.203593],[24.813821,60.203383],[24.813177,60.203054],[24.813006,60.202959]],[[24.81454,60.206466],[24.814623,60.20639]],[[24.81454,60.206466],[24.815399,60.206451]],[[24.815399,60.206451],[24.816038,60.206449]],[[24.816038,60.206449],[24.816827,60.206437]],[[24.827583,60.176324],[24.827632,60.176212],[24.827643,60.176068],[24.827602,60.175937],[24.827541,60.175732],[24.827514,60.175629],[24.827501,60.175579],[24.827453,60.175404],[24.827372,60.17513],[24.827324,60.174942],[24.827294,60.174825]],[[24.827294,60.174825],[24.827233,60.174645],[24.827192,60.174451]],[[24.82668,60.173743],[24.826953,60.174066],[24.827071,60.174207],[24.827157,60.174339],[24.827192,60.174451]],[[24.826487,60.173519],[24.82668,60.173743]],[[24.819668,60.217479],[24.819647,60.217451],[24.819622,60.217427],[24.81961,60.217414],[24.81956,60.217358],[24.819451,60.217269],[24.819369,60.217209]],[[24.819083,60.217841],[24.819198,60.217736],[24.819295,60.217658],[24.819361,60.217628],[24.819604,60.217558],[24.819658,60.21754],[24.81968,60.21751],[24.819675,60.217488],[24.819668,60.217479]]]}},{"type":"Feature","properties":{"name":"Laajasalonbaana"},"geometry":{"type":"MultiLineString","coordinates":[[[25.045245,60.185381],[25.045432,60.185361],[25.045524,60.185349],[25.045581,60.185338],[25.045656,60.185313],[25.045707,60.185291]],[[25.049986,60.179537],[25.050019,60.179346],[25.050035,60.179245],[25.050028,60.179212],[25.049986,60.179108],[25.049982,60.179073],[25.050005,60.178946],[25.050033,60.178779],[25.050068,60.178579],[25.050086,60.178543],[25.050128,60.178505],[25.050151,60.178474],[25.050163,60.178412]],[[25.050163,60.178412],[25.050272,60.178375]],[[25.050272,60.178375],[25.050275,60.178361],[25.050279,60.178295]],[[25.050279,60.178295],[25.050289,60.1782]],[[25.050289,60.1782],[25.050294,60.178165]],[[25.050294,60.178165],[25.050208,60.178124]],[[25.050208,60.178124],[25.050207,60.178105],[25.0502,60.178016],[25.050176,60.177957],[25.050152,60.177922],[25.050133,60.177873],[25.050083,60.177676],[25.049968,60.177275],[25.049916,60.177098],[25.049826,60.176835],[25.049774,60.176686],[25.049706,60.176518],[25.049621,60.176309],[25.049538,60.176133],[25.049446,60.175956],[25.049329,60.175774],[25.049254,60.175666],[25.049217,60.17564],[25.049167,60.175629]],[[25.049167,60.175629],[25.049131,60.175613],[25.049129,60.17554],[25.049131,60.175498],[25.049132,60.175466],[25.049133,60.175433],[25.049133,60.175359],[25.049135,60.175282]],[[25.046744,60.185001],[25.046722,60.18504],[25.046698,60.18508],[25.04669,60.185121],[25.04669,60.185167],[25.046701,60.185248]],[[25.049454,60.182191],[25.049433,60.182255],[25.049346,60.182404],[25.049143,60.182741],[25.049022,60.182911],[25.048646,60.183387],[25.048616,60.183425],[25.048555,60.183497],[25.048348,60.183719],[25.048053,60.184003],[25.047753,60.18429],[25.047494,60.184489],[25.047121,60.184761],[25.046744,60.185001]],[[25.049847,60.175309],[25.049883,60.175324],[25.04994,60.175336],[25.050017,60.175344]],[[25.050017,60.175344],[25.050018,60.175399],[25.050025,60.175486],[25.050029,60.17554]],[[25.050029,60.17554],[25.050034,60.175588],[25.050062,60.17565],[25.050097,60.175717],[25.050207,60.175954],[25.050233,60.176007],[25.05024,60.17605],[25.050236,60.176136],[25.050238,60.176179],[25.050615,60.177192],[25.050697,60.177476],[25.050797,60.177772],[25.050791,60.177877],[25.050821,60.178047]],[[25.050821,60.178047],[25.050735,60.178099]],[[25.050735,60.178099],[25.050726,60.178176]],[[25.050726,60.178176],[25.050716,60.17827]],[[25.050716,60.17827],[25.050704,60.178359],[25.050704,60.178373]],[[25.050704,60.178373],[25.050777,60.178401]],[[25.050777,60.178401],[25.050777,60.178471],[25.050795,60.178505],[25.050852,60.178566],[25.050862,60.178618],[25.050856,60.178653],[25.050808,60.178947],[25.050805,60.178962],[25.05076,60.179063],[25.050665,60.179563]],[[25.050665,60.179563],[25.050594,60.179906],[25.050552,60.180042]],[[25.050552,60.180042],[25.05047,60.180221],[25.050375,60.180381],[25.050297,60.180421],[25.050251,60.18049]],[[25.050251,60.18049],[25.050164,60.18052],[25.050101,60.180543]],[[25.050101,60.180543],[25.05009,60.180556],[25.050062,60.180588]],[[25.050062,60.180588],[25.049951,60.180719]],[[25.049951,60.180719],[25.050015,60.18077],[25.049959,60.180827],[25.049954,60.180896],[25.049755,60.181169],[25.049712,60.181231],[25.049488,60.181542],[25.049445,60.181642],[25.049434,60.181769],[25.049448,60.181879],[25.049464,60.182002],[25.049471,60.182115],[25.049454,60.182191]],[[25.047553,60.184365],[25.047082,60.184709],[25.046804,60.184896]],[[25.045707,60.185291],[25.046171,60.185047],[25.046521,60.184834],[25.046747,60.184684],[25.047189,60.184363],[25.047406,60.184192],[25.047656,60.183972],[25.047791,60.18385]],[[25.047791,60.18385],[25.047805,60.183791],[25.047853,60.18369],[25.047874,60.183656],[25.047894,60.183629],[25.047961,60.183551],[25.048048,60.183452],[25.048131,60.183359],[25.048196,60.183309],[25.048404,60.183201]],[[25.048404,60.183201],[25.048551,60.182988],[25.048899,60.182488],[25.049024,60.182297],[25.049071,60.182214],[25.049093,60.182148]],[[25.049093,60.182148],[25.049108,60.182068],[25.0491,60.181993],[25.049049,60.181792],[25.04901,60.181594],[25.048969,60.181424],[25.048958,60.18135],[25.048965,60.181269],[25.049095,60.181068],[25.049248,60.180887],[25.049401,60.180698]],[[25.049401,60.180698],[25.049501,60.18057],[25.049525,60.180538]],[[25.049525,60.180538],[25.049745,60.180262],[25.049821,60.180135],[25.04986,60.180025],[25.049928,60.179795],[25.049986,60.179537]]]}},{"type":"Feature","properties":{"name":"Lentoasemanbaana","ref":"5"},"geometry":{"type":"MultiLineString","coordinates":[[[24.942153,60.177105],[24.942033,60.177229],[24.941938,60.177288],[24.941309,60.177571],[24.940719,60.177859]],[[24.933002,60.206231],[24.933004,60.206213],[24.932828,60.205843],[24.932643,60.205101],[24.932546,60.20451],[24.932542,60.204148],[24.932494,60.203905],[24.932496,60.20364],[24.932511,60.203516],[24.932596,60.20322],[24.932745,60.202867]],[[24.933002,60.206231],[24.932989,60.206274],[24.933099,60.206641],[24.93316,60.206787],[24.933298,60.207012],[24.933455,60.207162]],[[24.933455,60.207162],[24.933564,60.207282],[24.933675,60.207408],[24.934013,60.207746],[24.934246,60.208021],[24.934362,60.208169],[24.934421,60.208309],[24.934621,60.208849],[24.93477,60.209191],[24.935075,60.20982],[24.935226,60.210104],[24.935253,60.210193],[24.935277,60.210277],[24.935328,60.210485],[24.935502,60.210794],[24.935827,60.211297],[24.935871,60.21138],[24.936041,60.211703],[24.936277,60.212142],[24.936677,60.212793],[24.936961,60.21323],[24.937127,60.213513],[24.937199,60.213606],[24.937291,60.2137],[24.937416,60.213822],[24.937503,60.21391],[24.937593,60.214025],[24.937704,60.214198],[24.937865,60.214416],[24.937991,60.214581],[24.938136,60.214711],[24.938387,60.214921],[24.938568,60.215082],[24.938944,60.215421],[24.939243,60.215698],[24.939592,60.216014],[24.939812,60.216204],[24.939935,60.216322],[24.940161,60.2165],[24.94044,60.216707],[24.940678,60.216869],[24.940997,60.217078],[24.941147,60.217167],[24.941306,60.217239],[24.941457,60.21729],[24.941756,60.217379],[24.941864,60.217411],[24.942004,60.217462],[24.942154,60.217526],[24.942981,60.217963],[24.94312,60.218044],[24.943238,60.218126],[24.943624,60.218423],[24.943723,60.218514],[24.943795,60.218591],[24.943924,60.218755],[24.943971,60.218807]],[[24.965815,60.227572],[24.96589,60.227612],[24.965932,60.227641],[24.966017,60.227683]],[[24.966017,60.227683],[24.966356,60.22785]],[[24.966356,60.22785],[24.966914,60.228119]],[[24.966914,60.228119],[24.967057,60.228194],[24.967161,60.228248],[24.967292,60.228324]],[[24.966943,60.227495],[24.967035,60.227537],[24.967099,60.227553],[24.967198,60.227563],[24.967278,60.227572],[24.967363,60.227589],[24.967432,60.227614],[24.967483,60.227639],[24.967522,60.22767],[24.967556,60.227708],[24.967575,60.227744],[24.967585,60.227776],[24.967587,60.227802],[24.967583,60.227825],[24.967477,60.228141],[24.967422,60.228209],[24.967341,60.22828],[24.967292,60.228324]],[[24.966943,60.227495],[24.966869,60.227542],[24.966722,60.227619],[24.96644,60.227778],[24.964273,60.2289],[24.964223,60.22894],[24.964173,60.228988],[24.964116,60.229019]],[[24.964116,60.229019],[24.964049,60.229041],[24.964002,60.229059]],[[24.963949,60.228993],[24.963975,60.229017],[24.963991,60.229038],[24.964002,60.229059]],[[24.963818,60.228928],[24.963875,60.228949],[24.963915,60.22897],[24.963949,60.228993]],[[24.963691,60.228903],[24.963754,60.228912],[24.963818,60.228928]],[[24.963465,60.228912],[24.963539,60.228902],[24.963615,60.228899],[24.963691,60.228903]],[[24.963218,60.229052],[24.963251,60.229008],[24.963289,60.228978],[24.963337,60.228952],[24.963397,60.228929],[24.963465,60.228912]],[[24.963253,60.22919],[24.963226,60.229157],[24.96321,60.229123],[24.963208,60.229087],[24.963218,60.229052]],[[24.963517,60.229292],[24.963455,60.229282],[24.963396,60.229267],[24.963366,60.229256],[24.96334,60.229245],[24.963324,60.229238],[24.963293,60.229221],[24.963253,60.22919]],[[24.963633,60.229297],[24.963575,60.229296],[24.963517,60.229292]],[[24.963814,60.229335],[24.963633,60.229297]],[[24.9664,60.233816],[24.96646,60.233771],[24.966494,60.233748],[24.966545,60.233705],[24.96659,60.233645],[24.966628,60.233585],[24.966679,60.23351],[24.966738,60.233415],[24.966753,60.233356],[24.966772,60.233324],[24.966793,60.23328],[24.966834,60.233234],[24.966868,60.233177],[24.966926,60.23307],[24.966995,60.232961],[24.967004,60.232946],[24.967179,60.232649],[24.967277,60.232485],[24.967344,60.232365],[24.967371,60.232318],[24.967478,60.232134],[24.967601,60.231921],[24.967661,60.231822],[24.967669,60.231786],[24.967675,60.231752],[24.967684,60.23171],[24.967689,60.231629],[24.967672,60.231537],[24.967623,60.231423],[24.967576,60.231359],[24.967539,60.231316],[24.967465,60.23124],[24.967408,60.231195],[24.96736,60.231161],[24.967293,60.231121],[24.967225,60.23108],[24.967021,60.230976],[24.966915,60.230919],[24.966801,60.23086],[24.966648,60.230783],[24.966533,60.230723],[24.96625,60.230573],[24.966089,60.230489],[24.966049,60.230468],[24.965786,60.230334],[24.965626,60.230257],[24.965538,60.23021],[24.965506,60.230194],[24.965379,60.230119],[24.96521,60.230066],[24.965047,60.229983],[24.964758,60.229835],[24.964452,60.229676],[24.964395,60.229646],[24.964342,60.229599],[24.964316,60.229576],[24.964274,60.229548],[24.964035,60.229421],[24.963948,60.229387],[24.963926,60.229378],[24.963814,60.229335]],[[24.963754,60.228912],[24.963819,60.228883],[24.964016,60.228791],[24.964833,60.22838]],[[24.964833,60.22838],[24.964882,60.228298]],[[24.964882,60.228298],[24.966069,60.22769],[24.966455,60.227487],[24.966705,60.227353],[24.966846,60.227266],[24.966902,60.227231]],[[24.967887,60.231867],[24.967868,60.231909],[24.967814,60.232006],[24.967743,60.232138]],[[24.967743,60.232138],[24.967588,60.2324],[24.967484,60.232574],[24.967373,60.23276],[24.967245,60.232975]],[[24.967245,60.232975],[24.967113,60.23321],[24.967029,60.233355],[24.96697,60.233456],[24.966829,60.233668],[24.96666,60.233881]],[[24.964005,60.229129],[24.963988,60.229162],[24.96396,60.229193],[24.963922,60.229222],[24.963876,60.229246],[24.963822,60.229266],[24.963763,60.229282],[24.963699,60.229292],[24.963633,60.229297]],[[24.964002,60.229059],[24.964009,60.229094],[24.964005,60.229129]],[[24.943254,60.173134],[24.943275,60.173024]],[[24.943123,60.173872],[24.943133,60.17382],[24.943205,60.17341],[24.943254,60.173134]],[[24.942961,60.174156],[24.942998,60.174126],[24.943072,60.174036],[24.943101,60.17397],[24.943123,60.173872]],[[24.942249,60.175579],[24.942308,60.175395],[24.942352,60.175171],[24.942388,60.174985],[24.942427,60.174784],[24.942478,60.174662],[24.94258,60.1745],[24.94269,60.174366],[24.94272,60.17434],[24.942882,60.174219],[24.942961,60.174156]],[[24.942153,60.177105],[24.942047,60.17704],[24.941894,60.176954],[24.941813,60.176893],[24.941745,60.176794],[24.941692,60.176715],[24.941637,60.176625],[24.941594,60.176543],[24.941586,60.176487],[24.941607,60.176415],[24.941736,60.176272],[24.94177,60.176234],[24.941983,60.175997],[24.942156,60.175758],[24.942249,60.175579]],[[24.964005,60.229129],[24.964084,60.229211]],[[24.964084,60.229211],[24.964126,60.229263],[24.964171,60.229294],[24.964303,60.229374],[24.964566,60.229504],[24.96489,60.229678],[24.964988,60.229725],[24.965105,60.229785],[24.9653,60.229886],[24.965335,60.229904],[24.965425,60.229954],[24.965506,60.229993],[24.965574,60.230026],[24.965846,60.230171],[24.966105,60.230309],[24.966243,60.230377],[24.966441,60.230477],[24.96666,60.230588],[24.966819,60.230668],[24.966853,60.230685],[24.96709,60.230812],[24.967264,60.230904],[24.96742,60.230987],[24.967433,60.230993],[24.967473,60.231013],[24.967503,60.231029],[24.967556,60.231055],[24.967641,60.231114],[24.967708,60.23118],[24.967749,60.231228],[24.9678,60.231291],[24.967837,60.231344],[24.967886,60.231428],[24.967918,60.231522],[24.96793,60.231579],[24.967936,60.231648],[24.967931,60.231748],[24.9679,60.231839],[24.967887,60.231867]]]}},{"type":"Feature","properties":{"name":"Länsibaana","ref":"1"},"geometry":{"type":"MultiLineString","coordinates":[[[24.749993,60.161642],[24.749853,60.161641],[24.749717,60.161637],[24.74958,60.161619],[24.749412,60.161597],[24.749249,60.161583],[24.748833,60.161546],[24.74858,60.161523],[24.748302,60.161499],[24.748167,60.161486],[24.747999,60.161457],[24.747815,60.16142],[24.746654,60.161172],[24.746244,60.161087],[24.746096,60.161071],[24.745874,60.161058],[24.745685,60.161047],[24.745495,60.161026],[24.74528,60.160989],[24.745094,60.160944],[24.744776,60.160853],[24.744545,60.160786],[24.744213,60.160692],[24.743863,60.160608],[24.743638,60.160555],[24.743185,60.160448],[24.742949,60.160395],[24.742799,60.160361],[24.742007,60.160189],[24.741733,60.160132],[24.74147,60.160061]],[[24.751894,60.163048],[24.75196,60.163039],[24.752029,60.163029],[24.752689,60.16297],[24.753564,60.162898],[24.753728,60.162888]],[[24.753728,60.162888],[24.75377,60.162944],[24.75386,60.162978],[24.753944,60.163028],[24.753991,60.163085],[24.754037,60.163201],[24.754088,60.163368],[24.754143,60.163582],[24.754148,60.163652],[24.754125,60.163753],[24.754079,60.163862],[24.75403,60.163936],[24.75391,60.164065],[24.753791,60.16415],[24.753651,60.164238],[24.753601,60.164273],[24.753573,60.16431],[24.753563,60.16434],[24.753571,60.164377],[24.753589,60.164402],[24.753629,60.164427]],[[24.753629,60.164427],[24.753691,60.164454],[24.753782,60.164468],[24.754061,60.164488]],[[24.943187,60.173022],[24.943235,60.173023],[24.943275,60.173024]],[[24.943092,60.17302],[24.94314,60.173021],[24.943187,60.173022]],[[24.942984,60.173017],[24.943037,60.173012],[24.943092,60.17302]],[[24.942401,60.17303],[24.942522,60.173013],[24.942657,60.173009],[24.942932,60.173015],[24.942984,60.173017]],[[24.939455,60.172953],[24.940531,60.173072],[24.940981,60.173125],[24.941128,60.173141],[24.941216,60.173149],[24.941299,60.173152],[24.941404,60.173154],[24.94151,60.17315],[24.941679,60.173133],[24.942077,60.173077],[24.942401,60.17303]],[[24.939068,60.172916],[24.939455,60.172953]],[[24.938963,60.172911],[24.939013,60.172906],[24.939068,60.172916]],[[24.938887,60.172906],[24.938963,60.172911]],[[24.93864,60.172893],[24.938765,60.1729],[24.938887,60.172906]],[[24.93858,60.172889],[24.93864,60.172893]],[[24.93858,60.172889],[24.938497,60.172884]],[[24.938497,60.172884],[24.938448,60.172888],[24.938411,60.172878]],[[24.938411,60.172878],[24.93703,60.172786],[24.936568,60.172757],[24.936464,60.172748]],[[24.936464,60.172748],[24.936163,60.17269]],[[24.936163,60.17269],[24.93605,60.172666]],[[24.93605,60.172666],[24.935926,60.172642],[24.935531,60.172572],[24.935464,60.17255]],[[24.935464,60.17255],[24.935443,60.17254],[24.935391,60.172515]],[[24.935391,60.172515],[24.935286,60.172461]],[[24.935286,60.172461],[24.935258,60.172444]],[[24.935258,60.172444],[24.935162,60.172398]],[[24.935162,60.172398],[24.934765,60.172198]],[[24.934765,60.172198],[24.934691,60.172154],[24.934542,60.172087],[24.933898,60.171767]],[[24.933898,60.171767],[24.933732,60.17169],[24.933616,60.171635],[24.93346,60.171563],[24.933235,60.171468],[24.932997,60.171374],[24.932705,60.171264]],[[24.932083,60.171049],[24.932705,60.171264]],[[24.932083,60.171049],[24.931972,60.171014],[24.931579,60.170888],[24.93112,60.170744],[24.930625,60.170592],[24.929671,60.1703],[24.92791,60.169757],[24.927543,60.169642],[24.927458,60.169612],[24.927314,60.169547],[24.927231,60.169514],[24.926209,60.169207],[24.925399,60.168957]],[[24.925399,60.168957],[24.925262,60.168915],[24.925147,60.168872],[24.92504,60.168833],[24.924936,60.168795]],[[24.924936,60.168795],[24.924793,60.168765]],[[24.924206,60.168589],[24.924513,60.16869],[24.924643,60.168733],[24.924793,60.168765]],[[24.923532,60.168174],[24.924059,60.168499],[24.924206,60.168589]],[[24.923303,60.168131],[24.923333,60.168122],[24.923372,60.168117],[24.923425,60.168123],[24.923469,60.16814],[24.923532,60.168174]],[[24.922302,60.167799],[24.922397,60.16783],[24.922433,60.167842],[24.92263,60.167904],[24.92304,60.168025],[24.923158,60.16806],[24.923257,60.168096],[24.923303,60.168131]],[[24.922121,60.167754],[24.922213,60.167777],[24.922302,60.167799]],[[24.924936,60.168795],[24.924842,60.168754],[24.924708,60.168693],[24.924544,60.168614],[24.924436,60.168553],[24.924379,60.168519],[24.924291,60.168467],[24.924194,60.168404]],[[24.924194,60.168404],[24.923918,60.168178],[24.923761,60.168011],[24.92371,60.167968],[24.923654,60.167894],[24.923568,60.167789],[24.923507,60.167696],[24.923452,60.167597],[24.9234,60.167484],[24.923381,60.167429],[24.923372,60.167403],[24.923356,60.167357],[24.92332,60.167228],[24.923288,60.167043],[24.923278,60.166856]],[[24.923278,60.166856],[24.923292,60.166667],[24.923331,60.166367],[24.92333,60.166095],[24.923115,60.165466],[24.92296,60.16504],[24.922884,60.164932],[24.922828,60.164848],[24.922705,60.164753],[24.922621,60.164676],[24.922591,60.164599],[24.922515,60.164386],[24.922286,60.163754]],[[24.939068,60.172916],[24.939011,60.172919],[24.938963,60.172911]],[[24.938411,60.172878],[24.938451,60.172874],[24.938497,60.172884]],[[24.943092,60.17302],[24.943035,60.173024],[24.942984,60.173017]],[[24.716617,60.156034],[24.716711,60.156052],[24.717077,60.156135],[24.717451,60.156201]],[[24.717451,60.156201],[24.717865,60.156278],[24.71816,60.156324],[24.718522,60.156374],[24.718865,60.156409],[24.719306,60.156447],[24.719748,60.156473],[24.720131,60.156486],[24.72064,60.156493],[24.721128,60.156488],[24.721536,60.156467],[24.722032,60.156437],[24.722533,60.156398],[24.723126,60.15635],[24.723696,60.156298]],[[24.723696,60.156298],[24.724156,60.15626],[24.724669,60.156255],[24.72496,60.156281],[24.725241,60.156315],[24.72575,60.156413],[24.726052,60.156486],[24.726191,60.156519],[24.726291,60.156526],[24.726362,60.156517],[24.726418,60.156508]]]}},{"type":"Feature","properties":{"name":"Metsälänbaana"},"geometry":{"type":"MultiLineString","coordinates":[[[24.923075,60.21643],[24.923128,60.216464],[24.923202,60.216512],[24.923267,60.216552],[24.923347,60.216595],[24.923783,60.21679],[24.923928,60.216854]],[[24.923928,60.216854],[24.924074,60.216923],[24.924364,60.217058],[24.924429,60.217086],[24.924735,60.217222],[24.924927,60.217308],[24.925282,60.217462],[24.925399,60.217507],[24.925509,60.217541],[24.925645,60.217576],[24.925804,60.217605],[24.925954,60.217621],[24.926136,60.217636],[24.926286,60.217649],[24.927564,60.217743],[24.92794,60.217771],[24.930077,60.217921],[24.931972,60.218047]]]}},{"type":"Feature","properties":{"name":"Munkkiniemenbaana","ref":"2"},"geometry":{"type":"MultiLineString","coordinates":[[[24.87515,60.198564],[24.875043,60.198594],[24.874361,60.198787],[24.874054,60.198874],[24.873837,60.198935],[24.873719,60.198969],[24.873636,60.198993]],[[24.873636,60.198993],[24.873325,60.19908]],[[24.873325,60.19908],[24.873247,60.199102]],[[24.873247,60.199102],[24.872937,60.199193],[24.872368,60.199359],[24.872141,60.199424],[24.871817,60.199515],[24.871235,60.199681],[24.870668,60.199844],[24.869948,60.200049],[24.869801,60.200091],[24.86727,60.200811],[24.866859,60.200929],[24.866779,60.200952],[24.864413,60.201625],[24.864125,60.201704],[24.863755,60.201791],[24.863432,60.201854],[24.863104,60.201912],[24.860861,60.202245],[24.857977,60.20268]],[[24.891229,60.194505],[24.891437,60.194387],[24.891755,60.194233]],[[24.891159,60.194544],[24.891229,60.194505]],[[24.890764,60.194743],[24.890939,60.194665],[24.891159,60.194544]],[[24.888775,60.195484],[24.889011,60.19542],[24.889311,60.195341],[24.88951,60.195266],[24.889809,60.195167],[24.890031,60.195082],[24.890391,60.194908],[24.890764,60.194743]],[[24.897338,60.191688],[24.89744,60.191622],[24.897623,60.191531],[24.898236,60.19123],[24.898542,60.191082],[24.898689,60.191011],[24.898729,60.190981],[24.898848,60.190851],[24.898949,60.190737]],[[24.896042,60.192341],[24.896091,60.192319],[24.896393,60.192173],[24.897107,60.191809],[24.897338,60.191688]],[[24.895276,60.192689],[24.895491,60.192601],[24.895542,60.192577],[24.895663,60.192521],[24.896042,60.192341]],[[24.894971,60.192837],[24.895005,60.192822],[24.895138,60.192753],[24.895276,60.192689]],[[24.894593,60.193014],[24.89469,60.192973],[24.894821,60.192914],[24.894895,60.192878],[24.894971,60.192837]],[[24.891755,60.194233],[24.891993,60.194118],[24.892071,60.194088],[24.892249,60.194039],[24.892381,60.194004],[24.892513,60.193949],[24.892992,60.193732],[24.893674,60.193443],[24.893949,60.193337],[24.894027,60.193296],[24.894082,60.193252],[24.894154,60.193209],[24.894446,60.19308],[24.894593,60.193014]]]}},{"type":"Feature","properties":{"name":"Myyrmäenbaana"},"geometry":{"type":"MultiLineString","coordinates":[[[24.884357,60.221814],[24.884301,60.221845],[24.884089,60.221949],[24.884025,60.221976],[24.883911,60.222008],[24.883649,60.222075],[24.883454,60.222116],[24.883277,60.222172],[24.883154,60.222215],[24.88304,60.222272],[24.882761,60.222432]],[[24.884815,60.221662],[24.884617,60.221701],[24.884545,60.221726],[24.884475,60.221752],[24.884399,60.221787],[24.884357,60.221814]],[[24.884329,60.221712],[24.884563,60.221685],[24.884815,60.221662],[24.884951,60.22164],[24.885047,60.22161],[24.88536,60.221516],[24.886938,60.220963],[24.887264,60.220847],[24.8884,60.220462]],[[24.8884,60.220462],[24.888458,60.220444],[24.889761,60.219976],[24.890291,60.21979],[24.890557,60.219695],[24.890663,60.219655]],[[24.884329,60.221712],[24.88436,60.221772],[24.884357,60.221814]]]}},{"type":"Feature","properties":{"name":"Olarinbaana"},"geometry":{"type":"MultiLineString","coordinates":[[[24.775109,60.184874],[24.774708,60.184816],[24.774116,60.184721],[24.773785,60.184641],[24.773457,60.184525],[24.773064,60.184354],[24.77224,60.184076],[24.771676,60.183914],[24.770705,60.183596],[24.770288,60.183434],[24.769952,60.183315],[24.769262,60.183075],[24.769194,60.183053],[24.768822,60.182923],[24.76847,60.182799],[24.768409,60.182778]],[[24.768409,60.182778],[24.768315,60.182749],[24.768172,60.182702],[24.768112,60.182683]],[[24.768112,60.182683],[24.766984,60.182308],[24.766598,60.182197],[24.76625,60.182049],[24.765544,60.181755],[24.765082,60.181591],[24.76482,60.181507],[24.764498,60.181421]],[[24.76004,60.180862],[24.760125,60.180875],[24.760498,60.180868],[24.761082,60.180879],[24.761229,60.180883],[24.761471,60.1809],[24.761977,60.180959],[24.76246,60.181011],[24.76307,60.181126],[24.763393,60.181181],[24.763595,60.181231],[24.763882,60.181281],[24.764267,60.181368],[24.764498,60.181421]],[[24.759552,60.180856],[24.759722,60.180857],[24.759872,60.180856],[24.76004,60.180862]],[[24.75452,60.181004],[24.754664,60.180989],[24.755001,60.180954],[24.755266,60.180931],[24.755546,60.18092],[24.756474,60.180899],[24.757384,60.180878],[24.757787,60.18087],[24.758612,60.180867],[24.759165,60.18086],[24.759468,60.180857],[24.759552,60.180856]]]}},{"type":"Feature","properties":{"name":"Otabaana"},"geometry":{"type":"MultiLineString","coordinates":[[[24.810222,60.187198],[24.810422,60.187232],[24.810658,60.187272],[24.810845,60.187288],[24.810978,60.187292],[24.811033,60.187292],[24.811138,60.187284]],[[24.811138,60.187284],[24.81218,60.187181],[24.812379,60.187166]],[[24.812379,60.187166],[24.812566,60.187149],[24.812697,60.187126],[24.812775,60.187102],[24.812858,60.187066],[24.812924,60.187016],[24.813045,60.186902]],[[24.813266,60.186724],[24.813435,60.186772],[24.813501,60.186791],[24.813634,60.186821],[24.813776,60.186841],[24.813878,60.186846],[24.814008,60.186853],[24.814165,60.186848],[24.814871,60.186777],[24.815247,60.18674],[24.815762,60.186689],[24.815895,60.186681],[24.816066,60.186679],[24.816237,60.186683],[24.816542,60.186697],[24.816742,60.186697],[24.817133,60.186682],[24.817367,60.186672]],[[24.817367,60.186672],[24.818311,60.18661],[24.818963,60.18656],[24.819753,60.186497],[24.819795,60.186494],[24.8202,60.186463],[24.820701,60.186432],[24.821235,60.186401],[24.821495,60.186377],[24.821627,60.186363],[24.821766,60.186343],[24.821959,60.186307],[24.822037,60.186291],[24.822074,60.186271]],[[24.822074,60.186271],[24.822205,60.186269],[24.822397,60.186259],[24.822463,60.186254],[24.822545,60.186248]],[[24.822545,60.186248],[24.822561,60.186257],[24.822646,60.186291],[24.82272,60.186319],[24.822778,60.186335],[24.822836,60.186344],[24.822921,60.186351],[24.822984,60.186353],[24.823094,60.186353],[24.823203,60.186348],[24.823398,60.186332],[24.823616,60.186313],[24.823846,60.186294],[24.824358,60.186242],[24.824737,60.186203],[24.825215,60.186153],[24.825421,60.186133],[24.825552,60.186109],[24.825665,60.186084],[24.825787,60.186051],[24.825877,60.186016],[24.825943,60.185987],[24.826079,60.185918]],[[24.826354,60.185644],[24.826301,60.185743],[24.826233,60.185816],[24.826187,60.185862],[24.826148,60.185894],[24.826079,60.185918]],[[24.826355,60.18538],[24.826375,60.185459],[24.826379,60.185523],[24.826376,60.185592],[24.826354,60.185644]],[[24.826529,60.185297],[24.826458,60.185326],[24.826412,60.185349],[24.826355,60.18538]],[[24.827014,60.184646],[24.826839,60.184758],[24.826594,60.184938],[24.826477,60.185017],[24.826445,60.185044],[24.826429,60.185068],[24.826426,60.185086],[24.826429,60.185118],[24.826519,60.185269],[24.826529,60.185297]],[[24.828102,60.184256],[24.828051,60.184272],[24.827975,60.184294],[24.82777,60.184358],[24.827491,60.18446],[24.827312,60.184529],[24.827175,60.184581],[24.827049,60.18463],[24.827014,60.184646]],[[24.829979,60.183919],[24.829675,60.183962],[24.829428,60.183994],[24.829228,60.184027],[24.828728,60.184112],[24.828593,60.184134],[24.828441,60.184162],[24.828306,60.184194],[24.828163,60.184235],[24.828102,60.184256]],[[24.830432,60.183826],[24.830271,60.183876],[24.830155,60.183895],[24.829979,60.183919]],[[24.831901,60.183061],[24.831713,60.183162],[24.831589,60.183228],[24.831473,60.18329],[24.831455,60.183299],[24.831298,60.183382],[24.830539,60.183783],[24.830432,60.183826]],[[24.831901,60.183061],[24.832004,60.183003],[24.832697,60.182654],[24.832914,60.182538],[24.833085,60.182442],[24.833255,60.182321],[24.833449,60.182165],[24.833622,60.182003],[24.833704,60.181917],[24.83379,60.181815],[24.833821,60.18177],[24.833862,60.181713],[24.834002,60.181491],[24.834031,60.181445],[24.834128,60.181348],[24.834153,60.18133]],[[24.834153,60.18133],[24.834199,60.181256],[24.834228,60.181211]],[[24.834228,60.181211],[24.834271,60.181144],[24.834593,60.180636],[24.834722,60.180432],[24.834991,60.180006],[24.835032,60.179941],[24.835109,60.179833]],[[24.835109,60.179833],[24.835163,60.179762],[24.835256,60.179642],[24.835282,60.179609],[24.835303,60.179583]]]}},{"type":"Feature","properties":{"name":"Pasilanbaana","ref":"10"},"geometry":{"type":"MultiLineString","coordinates":[[[24.888572,60.195064],[24.888659,60.195076],[24.888721,60.195121],[24.888922,60.195383]],[[24.888922,60.195383],[24.889335,60.19571]],[[24.889481,60.195865],[24.889335,60.19571]],[[24.891155,60.196808],[24.890216,60.196293],[24.889848,60.196075],[24.889637,60.195964],[24.889481,60.195865]],[[24.891155,60.196808],[24.892555,60.196843]],[[24.892555,60.196843],[24.893144,60.196866]],[[24.893144,60.196866],[24.893195,60.196868],[24.893343,60.196872],[24.89366,60.196879]],[[24.89366,60.196879],[24.89484,60.196916],[24.895038,60.196921]],[[24.895038,60.196921],[24.895187,60.196925],[24.896839,60.196973],[24.897895,60.197004],[24.898119,60.197022],[24.898286,60.197057],[24.898593,60.19717],[24.899019,60.197192],[24.899169,60.19722],[24.899267,60.197259],[24.899361,60.197306]],[[24.899361,60.197306],[24.899388,60.197326]],[[24.899388,60.197326],[24.899424,60.197338],[24.899471,60.197344],[24.899541,60.197349],[24.89969,60.197354]],[[24.89969,60.197354],[24.900691,60.197383]],[[24.900691,60.197383],[24.901157,60.197394]],[[24.901157,60.197394],[24.901658,60.197411]],[[24.901658,60.197411],[24.901841,60.197418]],[[24.901841,60.197418],[24.901939,60.197421]],[[24.901939,60.197421],[24.902258,60.197429],[24.902427,60.19743]],[[24.902427,60.19743],[24.902472,60.197427],[24.9025,60.197424],[24.90256,60.197411],[24.902598,60.197397],[24.90264,60.19737],[24.902671,60.197342],[24.902708,60.197322]],[[24.902708,60.197322],[24.902762,60.197316],[24.902819,60.197317],[24.904072,60.197358],[24.904633,60.197373]],[[24.904633,60.197373],[24.905571,60.197398]],[[24.905571,60.197398],[24.905714,60.197401]],[[24.905714,60.197401],[24.905845,60.197404],[24.90592,60.197406]],[[24.90592,60.197406],[24.907883,60.197467]],[[24.907883,60.197467],[24.907973,60.197469],[24.908062,60.197471],[24.908451,60.197474]],[[24.908756,60.197413],[24.908553,60.197446],[24.908451,60.197474]],[[24.928334,60.197307],[24.928445,60.197326],[24.928476,60.197332]],[[24.928476,60.197332],[24.928514,60.197338],[24.928597,60.197354],[24.92865,60.197364]],[[24.92865,60.197364],[24.928745,60.19738],[24.928797,60.197389],[24.928833,60.197393]],[[24.928833,60.197393],[24.928964,60.19737]],[[24.928964,60.19737],[24.929318,60.19741],[24.929341,60.197413]],[[24.929341,60.197413],[24.930752,60.197584]],[[24.930752,60.197584],[24.930908,60.197603],[24.932471,60.197791]],[[24.932471,60.197791],[24.932605,60.197807],[24.933028,60.197805]],[[24.933028,60.197805],[24.933184,60.197803],[24.933472,60.197804],[24.933508,60.197806],[24.934577,60.197929],[24.934705,60.197943],[24.934745,60.197947]],[[24.934745,60.197947],[24.934766,60.197949]],[[24.934766,60.197949],[24.934969,60.197988],[24.935186,60.198034],[24.93528,60.198059]],[[24.93528,60.198059],[24.935412,60.198105],[24.936436,60.198228],[24.936622,60.19825],[24.937446,60.198341],[24.937603,60.19836],[24.938628,60.198485],[24.938759,60.1985],[24.93941,60.198583],[24.939707,60.198622],[24.93976,60.198628],[24.939807,60.198631]],[[24.939807,60.198631],[24.939878,60.1986],[24.939962,60.198577],[24.94004,60.198567],[24.940065,60.198564],[24.940164,60.198564],[24.940269,60.198579],[24.940371,60.198609],[24.94041,60.198627],[24.940448,60.198652],[24.940479,60.198678],[24.940501,60.198707],[24.940514,60.198738]],[[24.940514,60.198738],[24.940596,60.198746],[24.940685,60.198757]],[[24.940685,60.198757],[24.941386,60.198838]],[[24.941386,60.198838],[24.941529,60.198854],[24.94174,60.198877],[24.941793,60.198883]],[[24.941793,60.198883],[24.942524,60.198974]],[[24.942524,60.198974],[24.942688,60.198994],[24.942868,60.199015]],[[24.942868,60.199015],[24.943303,60.199067]],[[24.943303,60.199067],[24.943378,60.199075]],[[24.943378,60.199075],[24.943668,60.199106]],[[24.943668,60.199106],[24.943685,60.199108],[24.943766,60.199112]],[[24.943766,60.199112],[24.943356,60.199287],[24.943268,60.19928],[24.943185,60.199271],[24.942591,60.199202],[24.941642,60.199086],[24.94154,60.199074]],[[24.94154,60.199074],[24.941435,60.199061],[24.941325,60.199055]],[[24.941325,60.199055],[24.941129,60.199032],[24.940496,60.198956],[24.940384,60.198943],[24.940331,60.198935]],[[24.940331,60.198935],[24.94031,60.19894],[24.940248,60.198954],[24.940173,60.198963],[24.940149,60.198965],[24.940128,60.198966],[24.940093,60.198965],[24.940004,60.198958],[24.939949,60.198947],[24.939921,60.198942],[24.939847,60.198917],[24.939802,60.198894],[24.939764,60.198868],[24.939736,60.198845]],[[24.939736,60.198845],[24.939607,60.198828],[24.938652,60.198716]],[[24.938652,60.198716],[24.937501,60.198585],[24.936417,60.198461],[24.936274,60.198443],[24.935489,60.198353],[24.935299,60.198327],[24.935198,60.198314]],[[24.935198,60.198314],[24.935064,60.198299],[24.934843,60.198273],[24.934789,60.198266],[24.934703,60.198257],[24.934637,60.198249]],[[24.934637,60.198249],[24.934595,60.198234]],[[24.934595,60.198234],[24.934563,60.198224],[24.934512,60.198215],[24.934454,60.198207],[24.934378,60.198199],[24.934347,60.198197],[24.934321,60.198197],[24.934295,60.198199],[24.934267,60.198204],[24.934238,60.19821],[24.934211,60.198218],[24.934185,60.198226]],[[24.934185,60.198226],[24.934171,60.198227],[24.934158,60.198227],[24.933247,60.198122],[24.93304,60.198084]],[[24.93304,60.198084],[24.932916,60.198061]],[[24.932916,60.198061],[24.932807,60.198034],[24.932693,60.198005],[24.932638,60.197988],[24.932411,60.197915]],[[24.932411,60.197915],[24.931316,60.197785]],[[24.931316,60.197785],[24.930881,60.197791],[24.930819,60.197785],[24.930663,60.19777]],[[24.930663,60.19777],[24.930096,60.197703],[24.929261,60.197604]],[[24.929261,60.197604],[24.928819,60.197551],[24.928719,60.197527],[24.928602,60.1975],[24.928575,60.19749]],[[24.928575,60.19749],[24.928489,60.197482],[24.928447,60.197479],[24.928412,60.197476]],[[24.928412,60.197476],[24.928378,60.197472],[24.928264,60.197462]],[[24.946985,60.1998],[24.947702,60.200058],[24.947745,60.20008]],[[24.947745,60.20008],[24.947844,60.2002],[24.947881,60.200254]],[[24.947881,60.200254],[24.948016,60.200387],[24.948095,60.200458],[24.948211,60.200517],[24.948303,60.200549],[24.948446,60.200582],[24.948575,60.200597],[24.948721,60.2006],[24.948841,60.200595]],[[24.948841,60.200595],[24.948934,60.200591],[24.949069,60.200589],[24.949167,60.200592],[24.949318,60.200601],[24.94944,60.200596],[24.949585,60.200584],[24.949782,60.200561],[24.94996,60.200524],[24.950167,60.200482],[24.950349,60.200454],[24.950465,60.200441],[24.950558,60.200435],[24.950749,60.200423],[24.950989,60.200422],[24.951119,60.200427],[24.951263,60.200438],[24.951529,60.200469],[24.951724,60.200504]],[[24.951724,60.200504],[24.951975,60.200568]],[[24.951975,60.200568],[24.952465,60.200692],[24.952701,60.200756],[24.952967,60.200842]],[[24.952967,60.200842],[24.953012,60.200856],[24.953155,60.200909],[24.95325,60.200956],[24.953366,60.201004],[24.953535,60.201045]],[[24.953535,60.201045],[24.953752,60.201081],[24.954361,60.201183],[24.95494,60.201261],[24.955518,60.201325],[24.956158,60.20138],[24.956497,60.201401],[24.957073,60.201428],[24.957539,60.20144],[24.958182,60.201439],[24.958634,60.201425],[24.959165,60.201389],[24.959763,60.201349],[24.96036,60.201298],[24.960772,60.201256],[24.961093,60.20122],[24.961319,60.201201],[24.961431,60.201203],[24.961563,60.201217],[24.961653,60.20123]],[[24.961653,60.20123],[24.961756,60.201249]],[[24.961756,60.201249],[24.961859,60.201264],[24.961981,60.201237],[24.962131,60.201187],[24.962228,60.201151],[24.96234,60.201103],[24.962452,60.201062]],[[24.962452,60.201062],[24.962545,60.201039],[24.963431,60.200883],[24.963536,60.200865],[24.964005,60.200784],[24.964236,60.200738]],[[24.964236,60.200738],[24.964462,60.200682],[24.964583,60.200648],[24.964703,60.20061],[24.965268,60.200419],[24.965301,60.200408],[24.965338,60.200396]],[[24.965395,60.200441],[24.965338,60.200396]],[[24.965581,60.200585],[24.965523,60.20054],[24.96542,60.20046],[24.965395,60.200441]],[[24.965638,60.200629],[24.965581,60.200585]],[[24.965968,60.200523],[24.965638,60.200629]],[[24.966883,60.200342],[24.966236,60.200468],[24.966166,60.20048],[24.965968,60.200523]],[[24.967662,60.200238],[24.967601,60.20024],[24.967502,60.200251],[24.967031,60.200319],[24.966883,60.200342]],[[24.988474,60.217027],[24.98854,60.216968],[24.988509,60.216891],[24.988459,60.216787],[24.988248,60.216521],[24.98803,60.216331],[24.987918,60.216253]],[[24.987918,60.216253],[24.987804,60.216173],[24.987572,60.216028],[24.987408,60.21593]],[[24.987408,60.21593],[24.987307,60.215864],[24.987282,60.215848],[24.987181,60.215769]],[[24.987181,60.215769],[24.987024,60.21564],[24.986852,60.215488],[24.986528,60.215162],[24.986509,60.215145],[24.986392,60.215038],[24.986271,60.214958],[24.986161,60.214889]],[[24.986161,60.214889],[24.986062,60.214838],[24.985731,60.214655],[24.985678,60.214626],[24.985099,60.214314],[24.984947,60.214231]],[[24.984808,60.214177],[24.984872,60.21419],[24.984917,60.214215],[24.984947,60.214231]]]}},{"type":"Feature","properties":{"name":"Pitäjänmäenbaana","ref":"4"},"geometry":{"type":"MultiLineString","coordinates":[[[24.942153,60.177105],[24.942033,60.177229],[24.941938,60.177288],[24.941309,60.177571],[24.940719,60.177859]],[[24.881224,60.222313],[24.881379,60.222283],[24.882077,60.222142],[24.882858,60.221943],[24.883015,60.22191],[24.883444,60.221838],[24.883757,60.221797],[24.884086,60.221748],[24.884329,60.221712]],[[24.884329,60.221712],[24.884563,60.221685],[24.884815,60.221662],[24.884951,60.22164],[24.885047,60.22161],[24.88536,60.221516],[24.886938,60.220963],[24.887264,60.220847],[24.8884,60.220462]],[[24.8884,60.220462],[24.888458,60.220444],[24.889761,60.219976],[24.890291,60.21979],[24.890557,60.219695],[24.890663,60.219655]],[[24.890663,60.219655],[24.890913,60.219569]],[[24.890913,60.219569],[24.891178,60.219466],[24.891402,60.21937],[24.891946,60.219178]],[[24.926749,60.204553],[24.926241,60.204831],[24.925717,60.205103],[24.925515,60.205205]],[[24.928566,60.203423],[24.928469,60.203516],[24.928345,60.203629],[24.928209,60.203719],[24.927816,60.203953],[24.927511,60.204135],[24.926749,60.204553]],[[24.929485,60.202851],[24.928566,60.203423]],[[24.930088,60.202446],[24.929895,60.202596],[24.929485,60.202851]],[[24.930839,60.201461],[24.930773,60.201601],[24.930762,60.201642],[24.93075,60.201704],[24.930739,60.201753],[24.93073,60.201795],[24.930509,60.202089],[24.930492,60.202109],[24.930473,60.202127],[24.930436,60.202151],[24.930405,60.202177],[24.930363,60.202205],[24.930217,60.20234],[24.930088,60.202446]],[[24.9311,60.200866],[24.931079,60.20091],[24.93107,60.200915],[24.931047,60.200922],[24.931029,60.200935],[24.930857,60.201319],[24.93085,60.201359],[24.93085,60.201418],[24.930839,60.201461]],[[24.931215,60.20061],[24.9311,60.200866]],[[24.932166,60.198758],[24.932163,60.198764],[24.932118,60.198859],[24.931996,60.19911],[24.93196,60.199184],[24.931878,60.199329],[24.931804,60.199451],[24.931743,60.199554],[24.931645,60.199724],[24.931543,60.199904],[24.931215,60.20061]],[[24.932285,60.19851],[24.932265,60.198551],[24.932223,60.198641],[24.932201,60.198685],[24.932193,60.1987],[24.932166,60.198758]],[[24.932402,60.198284],[24.932285,60.19851]],[[24.932567,60.197754],[24.932599,60.19785],[24.932592,60.197906],[24.932402,60.198284]],[[24.943254,60.173134],[24.943275,60.173024]],[[24.943123,60.173872],[24.943133,60.17382],[24.943205,60.17341],[24.943254,60.173134]],[[24.942961,60.174156],[24.942998,60.174126],[24.943072,60.174036],[24.943101,60.17397],[24.943123,60.173872]],[[24.942249,60.175579],[24.942308,60.175395],[24.942352,60.175171],[24.942388,60.174985],[24.942427,60.174784],[24.942478,60.174662],[24.94258,60.1745],[24.94269,60.174366],[24.94272,60.17434],[24.942882,60.174219],[24.942961,60.174156]],[[24.942153,60.177105],[24.942047,60.17704],[24.941894,60.176954],[24.941813,60.176893],[24.941745,60.176794],[24.941692,60.176715],[24.941637,60.176625],[24.941594,60.176543],[24.941586,60.176487],[24.941607,60.176415],[24.941736,60.176272],[24.94177,60.176234],[24.941983,60.175997],[24.942156,60.175758],[24.942249,60.175579]]]}},{"type":"Feature","properties":{"name":"Pohjoisbaana","ref":"6"},"geometry":{"type":"MultiLineString","coordinates":[[[24.942153,60.177105],[24.942033,60.177229],[24.941938,60.177288],[24.941309,60.177571],[24.940719,60.177859]],[[24.933002,60.206231],[24.932989,60.206274],[24.933099,60.206641],[24.93316,60.206787],[24.933298,60.207012],[24.933455,60.207162]],[[24.933455,60.207162],[24.933564,60.207282],[24.933675,60.207408],[24.934013,60.207746],[24.934246,60.208021],[24.934362,60.208169],[24.934421,60.208309],[24.934621,60.208849],[24.93477,60.209191],[24.935075,60.20982],[24.935226,60.210104],[24.935253,60.210193],[24.935277,60.210277],[24.935328,60.210485],[24.935502,60.210794],[24.935827,60.211297],[24.935871,60.21138],[24.936041,60.211703],[24.936277,60.212142],[24.936677,60.212793],[24.936961,60.21323],[24.937127,60.213513],[24.937199,60.213606],[24.937291,60.2137],[24.937416,60.213822],[24.937503,60.21391],[24.937593,60.214025],[24.937704,60.214198],[24.937865,60.214416],[24.937991,60.214581],[24.938136,60.214711],[24.938387,60.214921],[24.938568,60.215082],[24.938944,60.215421],[24.939243,60.215698],[24.939592,60.216014],[24.939812,60.216204],[24.939935,60.216322],[24.940161,60.2165],[24.94044,60.216707],[24.940678,60.216869],[24.940997,60.217078],[24.941147,60.217167],[24.941306,60.217239],[24.941457,60.21729],[24.941756,60.217379],[24.941864,60.217411],[24.942004,60.217462],[24.942154,60.217526],[24.942981,60.217963],[24.94312,60.218044],[24.943238,60.218126],[24.943624,60.218423],[24.943723,60.218514],[24.943795,60.218591],[24.943924,60.218755],[24.943971,60.218807]],[[24.965815,60.227572],[24.96589,60.227612],[24.965932,60.227641],[24.966017,60.227683]],[[24.966017,60.227683],[24.966356,60.22785]],[[24.966356,60.22785],[24.966914,60.228119]],[[24.966914,60.228119],[24.967057,60.228194],[24.967161,60.228248],[24.967292,60.228324]],[[24.967292,60.228324],[24.967437,60.228403],[24.967831,60.228604],[24.967898,60.228641],[24.967956,60.228665],[24.968046,60.228702],[24.968754,60.229069],[24.968982,60.229182],[24.970144,60.229787],[24.970904,60.230182],[24.971509,60.230537],[24.971924,60.23079]],[[24.971924,60.23079],[24.972164,60.230925],[24.972399,60.231051],[24.973367,60.231543],[24.973854,60.231794],[24.974626,60.232186],[24.974986,60.232369]],[[24.974986,60.232369],[24.975129,60.232459]],[[24.975129,60.232459],[24.975478,60.232657]],[[25.043145,60.288722],[25.043145,60.288792],[25.04309,60.288868],[25.043043,60.288988],[25.043049,60.289045],[25.043048,60.289071],[25.043049,60.289092]],[[25.043049,60.289092],[25.043299,60.289637]],[[25.043299,60.289637],[25.043302,60.289648]],[[25.043302,60.289648],[25.043283,60.289668],[25.043287,60.289733],[25.043308,60.289822],[25.043335,60.289887]],[[24.943254,60.173134],[24.943275,60.173024]],[[24.943123,60.173872],[24.943133,60.17382],[24.943205,60.17341],[24.943254,60.173134]],[[24.942961,60.174156],[24.942998,60.174126],[24.943072,60.174036],[24.943101,60.17397],[24.943123,60.173872]],[[24.942249,60.175579],[24.942308,60.175395],[24.942352,60.175171],[24.942388,60.174985],[24.942427,60.174784],[24.942478,60.174662],[24.94258,60.1745],[24.94269,60.174366],[24.94272,60.17434],[24.942882,60.174219],[24.942961,60.174156]],[[24.942153,60.177105],[24.942047,60.17704],[24.941894,60.176954],[24.941813,60.176893],[24.941745,60.176794],[24.941692,60.176715],[24.941637,60.176625],[24.941594,60.176543],[24.941586,60.176487],[24.941607,60.176415],[24.941736,60.176272],[24.94177,60.176234],[24.941983,60.175997],[24.942156,60.175758],[24.942249,60.175579]]]}},{"type":"Feature","properties":{"name":"Saaristobaana","ref":"9"},"geometry":{"type":"MultiLineString","coordinates":[[[25.037788,60.174523],[25.037537,60.174492],[25.03737,60.174463],[25.037113,60.174411],[25.036997,60.174385],[25.036919,60.174366],[25.036767,60.174327],[25.036541,60.174263],[25.036235,60.174164],[25.035974,60.174065],[25.035733,60.173963],[25.035403,60.173793],[25.0352,60.173671],[25.035017,60.173548],[25.034851,60.1734]],[[25.034851,60.1734],[25.03476,60.173315],[25.034708,60.173267],[25.034603,60.17316]],[[25.034603,60.17316],[25.034555,60.173111]],[[25.034555,60.173111],[25.034485,60.173042],[25.03437,60.172937],[25.034205,60.172823]],[[25.034205,60.172823],[25.03406,60.172777],[25.034013,60.172753],[25.033747,60.17262],[25.033627,60.172559],[25.033478,60.172438]],[[25.033478,60.172438],[25.033321,60.17236],[25.03294,60.172164],[25.032769,60.172077],[25.032721,60.17205]],[[25.032721,60.17205],[25.032576,60.171969],[25.032525,60.171942],[25.032429,60.171913]],[[25.032429,60.171913],[25.032379,60.171912],[25.03233,60.171906],[25.032284,60.171896],[25.032243,60.171881],[25.032208,60.171864],[25.032179,60.171841],[25.032159,60.171816],[25.032149,60.17179]],[[25.032149,60.17179],[25.032015,60.171738],[25.031835,60.171688],[25.03126,60.171517],[25.030987,60.171439],[25.030711,60.171342],[25.030477,60.17122],[25.030266,60.17109],[25.030105,60.170958],[25.029848,60.170714]],[[25.029848,60.170714],[25.029674,60.170549],[25.029537,60.170422]],[[25.029537,60.170422],[25.029264,60.170164],[25.029104,60.170016],[25.028885,60.169809],[25.028725,60.169653],[25.028593,60.169536],[25.028466,60.169449],[25.028291,60.169359],[25.028077,60.169279],[25.027842,60.169216],[25.027619,60.169177],[25.027299,60.169139],[25.027014,60.169106],[25.026807,60.169087],[25.026481,60.169062],[25.025986,60.169009]],[[25.025986,60.169009],[25.025792,60.168987],[25.025159,60.168915],[25.025132,60.168912],[25.024892,60.168884]],[[25.024892,60.168884],[25.024703,60.168863],[25.024458,60.168834],[25.023971,60.168777],[25.023922,60.168771]],[[25.023922,60.168771],[25.023699,60.168765],[25.023485,60.168742],[25.023198,60.168711],[25.022869,60.168675],[25.022756,60.168666],[25.022652,60.16866],[25.02253,60.168658],[25.022405,60.168661],[25.022251,60.168669],[25.022145,60.168679],[25.022028,60.168693],[25.021912,60.168709],[25.021711,60.168744],[25.021434,60.168797],[25.021211,60.168838],[25.020921,60.168907],[25.020772,60.168923]],[[25.020772,60.168923],[25.019997,60.169119],[25.019864,60.169151],[25.019333,60.169281],[25.019054,60.169323],[25.018757,60.169345],[25.018597,60.169352],[25.018503,60.169349],[25.018451,60.169347]],[[25.018451,60.169347],[25.018091,60.169326],[25.016822,60.169255]],[[25.016822,60.169255],[25.016566,60.169241],[25.016414,60.169222]],[[25.016414,60.169222],[25.016361,60.169243],[25.016299,60.169254],[25.016232,60.169256],[25.016188,60.169252],[25.016147,60.169243],[25.01611,60.16923]],[[25.01611,60.16923],[25.015891,60.16924],[25.014828,60.169258],[25.013896,60.169271],[25.013501,60.169288],[25.013374,60.1693],[25.013169,60.169321]],[[25.013169,60.169321],[25.013141,60.16934],[25.013083,60.169347],[25.013041,60.169348],[25.013003,60.169343],[25.012969,60.169323],[25.01294,60.169296],[25.012907,60.169265],[25.012839,60.169201]],[[25.012839,60.169201],[25.012905,60.169179],[25.013037,60.169145],[25.013157,60.169127],[25.013482,60.169095],[25.01363,60.169085]],[[25.01363,60.169085],[25.013909,60.169102]],[[25.013909,60.169102],[25.014004,60.169099],[25.014817,60.169079],[25.015879,60.169063],[25.016086,60.169077]],[[25.016086,60.169077],[25.016126,60.169059],[25.016175,60.169046]],[[25.016175,60.169046],[25.016226,60.169039],[25.016278,60.169039],[25.016329,60.169045]],[[25.016329,60.169045],[25.016374,60.169057],[25.016413,60.169073]],[[25.016413,60.169073],[25.016601,60.169078],[25.017149,60.169105],[25.017521,60.169124],[25.018129,60.169157],[25.018463,60.16917]],[[25.018463,60.16917],[25.018724,60.169166],[25.018951,60.169149],[25.019223,60.169109],[25.019843,60.168959],[25.019998,60.168918],[25.020799,60.168718],[25.020968,60.16868],[25.021048,60.168662],[25.021238,60.168621],[25.021322,60.168602],[25.021337,60.168598],[25.021485,60.168564]],[[25.021485,60.168564],[25.021556,60.168546],[25.021748,60.168506],[25.021982,60.168465],[25.022127,60.168451],[25.022271,60.168441],[25.022444,60.168439],[25.02261,60.168444],[25.022861,60.168473],[25.023191,60.168516]],[[25.023191,60.168516],[25.02333,60.168506],[25.024145,60.168599],[25.024254,60.168641]],[[25.024254,60.168641],[25.024666,60.168685],[25.024778,60.168697],[25.024974,60.168715]],[[25.024974,60.168715],[25.025211,60.16874],[25.025927,60.168821],[25.026431,60.168884],[25.026557,60.1689],[25.02689,60.168946],[25.027373,60.169011],[25.027774,60.169054],[25.028069,60.169109],[25.028297,60.169182],[25.028503,60.169272],[25.028679,60.169367],[25.028804,60.169459],[25.028982,60.1696],[25.029159,60.169761],[25.029402,60.169992],[25.029791,60.170354]],[[25.029791,60.170354],[25.02985,60.170411],[25.030099,60.170646]],[[25.030099,60.170646],[25.030286,60.170818],[25.030448,60.170948],[25.03062,60.171048],[25.030765,60.171126],[25.031032,60.171248],[25.031169,60.171295],[25.031543,60.171406],[25.032099,60.171578],[25.032176,60.171601],[25.032349,60.171649]],[[25.032349,60.171649],[25.032406,60.171645],[25.032464,60.171647]],[[25.032464,60.171647],[25.032538,60.171659],[25.032601,60.171681],[25.03265,60.17171]],[[25.03265,60.17171],[25.032676,60.17174],[25.032688,60.171773]],[[25.032688,60.171773],[25.032727,60.171811]],[[25.032727,60.171811],[25.032803,60.17186],[25.032959,60.17194]],[[25.032959,60.17194],[25.03356,60.172241],[25.033812,60.17237]],[[25.033812,60.17237],[25.033929,60.172397],[25.033998,60.172418],[25.034016,60.172427],[25.034273,60.172559],[25.034424,60.172646],[25.034457,60.172668],[25.034512,60.172704],[25.034602,60.172777],[25.034797,60.172968],[25.034869,60.173041],[25.034915,60.173087]],[[25.034915,60.173087],[25.035027,60.173193],[25.035109,60.173274],[25.035126,60.173321]],[[25.035126,60.173321],[25.035248,60.173416],[25.035579,60.17364],[25.03608,60.173892],[25.036557,60.174076],[25.03683,60.174152],[25.037069,60.174213],[25.03729,60.174262],[25.037472,60.174296],[25.037668,60.174329]],[[25.037668,60.174329],[25.037814,60.17433],[25.038033,60.174354],[25.038165,60.174367]],[[25.038165,60.174367],[25.038184,60.17436],[25.038286,60.174338],[25.038324,60.174331],[25.03837,60.174327],[25.038494,60.174338],[25.038589,60.17435],[25.038628,60.174362],[25.038663,60.174385],[25.038702,60.174412]],[[25.038702,60.174412],[25.038848,60.174434]],[[25.038848,60.174434],[25.040347,60.174602]],[[25.040347,60.174602],[25.040561,60.174627],[25.041398,60.174718]],[[25.041398,60.174718],[25.043795,60.174991]],[[25.043795,60.174991],[25.043895,60.174995],[25.043992,60.174971],[25.044119,60.174956],[25.044254,60.17495],[25.044381,60.174967],[25.044484,60.175005],[25.044563,60.17506]],[[25.044563,60.17506],[25.044662,60.175074]],[[25.044662,60.175074],[25.045674,60.175191],[25.04577,60.175202],[25.045987,60.175227],[25.046379,60.175266],[25.047076,60.175337]],[[25.047076,60.175337],[25.047395,60.175358],[25.047612,60.175357],[25.047699,60.175353]],[[25.047699,60.175353],[25.048854,60.175302],[25.049033,60.175284],[25.049074,60.175283],[25.049135,60.175282]],[[25.049135,60.175282],[25.049252,60.175283],[25.049298,60.175283],[25.049396,60.175286],[25.049667,60.175296],[25.049847,60.175309]],[[25.010573,60.170058],[25.010893,60.169865],[25.011191,60.16972],[25.011522,60.169587],[25.011919,60.169452],[25.012412,60.169305],[25.012839,60.169201]],[[24.993762,60.176169],[24.99436,60.176114],[24.99484,60.176059],[24.995536,60.175967],[24.996299,60.175837],[24.997085,60.175674],[24.997818,60.175496],[24.998317,60.175365],[24.998772,60.175231],[24.999594,60.174993],[25.000387,60.174751],[25.001592,60.174292],[25.002029,60.174143],[25.003232,60.173763],[25.00433,60.173356],[25.00488,60.173131],[25.005957,60.172681],[25.006472,60.172447],[25.006869,60.172257],[25.0073,60.172042],[25.008056,60.171639],[25.008533,60.17137],[25.008915,60.171135],[25.009248,60.170926],[25.009421,60.170822],[25.009737,60.17061],[25.010138,60.170333],[25.010573,60.170058]],[[24.993441,60.176194],[24.993762,60.176169]],[[24.98488,60.176981],[24.985108,60.176959],[24.985305,60.176934],[24.985632,60.176874],[24.98591,60.176812],[24.987644,60.176408],[24.987929,60.176348],[24.988172,60.176302],[24.988375,60.176274],[24.988606,60.176241],[24.988833,60.176223],[24.98905,60.176205],[24.989849,60.176208],[24.991538,60.176259],[24.992165,60.176259],[24.992968,60.176224],[24.993441,60.176194]],[[24.983421,60.17717],[24.983513,60.17716],[24.983529,60.177158],[24.983544,60.177152],[24.983554,60.177145],[24.983565,60.177133],[24.983584,60.177105],[24.983604,60.177074],[24.983628,60.177053],[24.983653,60.177042],[24.983698,60.177032],[24.984184,60.177018],[24.984652,60.176996],[24.98488,60.176981]],[[24.981573,60.177191],[24.981695,60.177189],[24.983179,60.177173],[24.983371,60.17717],[24.983421,60.17717]],[[24.981317,60.177204],[24.981518,60.177192],[24.981573,60.177191]],[[24.977232,60.178411],[24.980606,60.177338],[24.98072,60.177307],[24.980831,60.17728],[24.981073,60.177232],[24.981182,60.177217],[24.981317,60.177204]],[[24.976921,60.178584],[24.976936,60.178559],[24.97696,60.178536],[24.976986,60.178519],[24.977026,60.178492],[24.977149,60.17844],[24.977219,60.178415],[24.977232,60.178411]],[[24.976364,60.178424],[24.97648,60.178446],[24.976568,60.178474],[24.97658,60.178478],[24.976605,60.178489],[24.976656,60.178521],[24.976703,60.178543],[24.976727,60.178551],[24.976808,60.178568],[24.976843,60.178572],[24.976921,60.178584]],[[24.97487,60.178405],[24.975104,60.178409],[24.976208,60.178422],[24.976364,60.178424]],[[24.97364,60.178388],[24.97487,60.178405]],[[24.97095,60.178382],[24.971184,60.178363],[24.97139,60.178357],[24.971522,60.178359],[24.972968,60.178379],[24.97364,60.178388]],[[24.970764,60.178395],[24.970829,60.17839],[24.97095,60.178382]],[[24.965448,60.178576],[24.965637,60.178596],[24.965865,60.178617],[24.966048,60.178634],[24.966239,60.178649],[24.96643,60.178656],[24.966749,60.17866],[24.96705,60.178661],[24.967364,60.17865],[24.968877,60.17854],[24.970764,60.178395]],[[24.963475,60.178248],[24.963943,60.178322],[24.964576,60.178445],[24.964868,60.1785],[24.965088,60.178534],[24.965448,60.178576]],[[24.960456,60.178149],[24.960631,60.178152],[24.962757,60.178183],[24.962953,60.178187],[24.962992,60.178191],[24.963259,60.178223],[24.963475,60.178248]],[[25.050029,60.17554],[25.049814,60.175562],[25.049645,60.17558],[25.049567,60.175588],[25.049385,60.175607],[25.049167,60.175629]],[[25.049167,60.175629],[25.049074,60.175632],[25.048997,60.175633],[25.048714,60.175632],[25.04851,60.175634],[25.048044,60.17564],[25.047914,60.175639],[25.047778,60.175635]],[[25.047778,60.175635],[25.047718,60.175633],[25.04764,60.175628]],[[25.04764,60.175628],[25.047274,60.17559],[25.045298,60.175363]],[[25.045298,60.175363],[25.04457,60.175278]],[[25.04457,60.175278],[25.044455,60.17528],[25.044243,60.175311],[25.044171,60.175313],[25.044097,60.175305],[25.044028,60.175292],[25.043971,60.175279],[25.043915,60.17526],[25.043831,60.175216],[25.043692,60.175199]],[[25.043692,60.175199],[25.042638,60.175083],[25.042191,60.175034],[25.041345,60.17494],[25.040379,60.174835],[25.040246,60.174821],[25.038751,60.174652]],[[25.038751,60.174652],[25.038609,60.174641]],[[25.038609,60.174641],[25.038519,60.174656],[25.038445,60.174665],[25.038371,60.174664],[25.038292,60.174656],[25.038238,60.174647],[25.038147,60.174626],[25.038099,60.174598]],[[25.038099,60.174598],[25.038024,60.174579],[25.037934,60.174567],[25.037851,60.174553],[25.037788,60.174523]]]}},{"type":"Feature","properties":{"name":"Tarvonbaana"},"geometry":{"type":"LineString","coordinates":[[24.842159,60.205116],[24.844512,60.204494]]}},{"type":"Feature","properties":{"name":"Vallilanbaana","ref":"17"},"geometry":{"type":"MultiLineString","coordinates":[[[24.984922,60.186446],[24.982083,60.186766]],[[24.982083,60.186766],[24.981921,60.186785],[24.981799,60.1868],[24.981653,60.186821],[24.981239,60.186865],[24.980843,60.186913],[24.980744,60.18693],[24.980664,60.186948],[24.98059,60.186963],[24.980329,60.186997],[24.980154,60.187025],[24.980074,60.187035],[24.979843,60.18705],[24.979699,60.187041],[24.979633,60.187038],[24.97945,60.187059],[24.979366,60.187069],[24.978396,60.18718]],[[24.978396,60.18718],[24.977823,60.187244],[24.977058,60.187328],[24.976723,60.187366]],[[24.974932,60.187628],[24.975392,60.187553],[24.975655,60.187514],[24.975966,60.187468],[24.976723,60.187366]],[[24.973013,60.18811],[24.972991,60.188066],[24.973011,60.18804],[24.97307,60.188017],[24.974248,60.187772],[24.974703,60.187675],[24.974932,60.187628]],[[24.973013,60.18811],[24.972994,60.188152],[24.972974,60.188187],[24.972925,60.188224]]]}},{"type":"Feature","properties":{"name":"Viikinbaana","ref":"10"},"geometry":{"type":"MultiLineString","coordinates":[[[25.02483,60.223045],[25.025716,60.222861],[25.028418,60.222307],[25.028821,60.222213],[25.029131,60.222145],[25.029406,60.222088],[25.029692,60.22203],[25.030125,60.221958],[25.030268,60.221932],[25.032715,60.221423],[25.036532,60.220626]],[[25.022572,60.223513],[25.02483,60.223045]],[[25.022504,60.223526],[25.022547,60.223518],[25.022572,60.223513]],[[25.022455,60.223538],[25.022504,60.223526]],[[25.021407,60.223767],[25.022043,60.223627],[25.022384,60.223553],[25.022455,60.223538]],[[25.020869,60.223878],[25.021407,60.223767]],[[25.017329,60.224618],[25.017372,60.224607],[25.017543,60.224567],[25.018232,60.224426],[25.020869,60.223878]],[[25.017082,60.224579],[25.017159,60.224587],[25.0172,60.224594],[25.017271,60.224605],[25.017329,60.224618]],[[25.016951,60.224578],[25.016989,60.224577],[25.017082,60.224579]],[[25.016729,60.224576],[25.01677,60.224576],[25.016817,60.224576],[25.016862,60.224577],[25.016907,60.224577],[25.016951,60.224578]],[[25.016511,60.224585],[25.016634,60.224578],[25.016729,60.224576]],[[25.012245,60.224427],[25.012408,60.22439],[25.012603,60.224353],[25.012957,60.224305],[25.012981,60.224302],[25.013248,60.224278],[25.013349,60.224272],[25.013536,60.224266],[25.013736,60.224262],[25.014269,60.224266],[25.01483,60.224301],[25.015182,60.22435],[25.015505,60.22442],[25.016165,60.224558],[25.016298,60.224579],[25.016403,60.224585],[25.016511,60.224585]],[[25.009181,60.225476],[25.010383,60.225044],[25.010723,60.224919],[25.011616,60.224629],[25.011668,60.224612],[25.012162,60.224451],[25.012245,60.224427]],[[25.008865,60.225563],[25.008914,60.22555],[25.009181,60.225476]],[[25.008015,60.225745],[25.008099,60.225715],[25.008141,60.225691],[25.008179,60.225663],[25.008219,60.225633],[25.008264,60.225612],[25.008315,60.225594],[25.008376,60.225577],[25.008448,60.22557],[25.008547,60.225567],[25.008624,60.22557],[25.008722,60.225572],[25.008782,60.225573],[25.008836,60.225569],[25.008865,60.225563]],[[25.059051,60.21539],[25.058833,60.215322]],[[25.058833,60.215322],[25.05867,60.215304],[25.058591,60.215294],[25.058558,60.215287],[25.058451,60.215264]],[[25.058833,60.215322],[25.05867,60.215304],[25.058591,60.215294],[25.058558,60.215287],[25.058451,60.215264]],[[25.050119,60.218162],[25.049392,60.218302],[25.049177,60.218334],[25.048924,60.21837],[25.048666,60.218402],[25.0485,60.218423],[25.048462,60.21843]],[[25.048462,60.21843],[25.048298,60.218451],[25.04816,60.218469]],[[25.04816,60.218469],[25.047865,60.218511],[25.047811,60.218521],[25.047782,60.218529],[25.047708,60.218557],[25.047629,60.218573],[25.047344,60.218614],[25.047178,60.218623],[25.047071,60.218621],[25.046928,60.218624],[25.046817,60.218631],[25.046699,60.218643],[25.045275,60.218843],[25.044945,60.218896],[25.044412,60.219011],[25.044342,60.219027],[25.044301,60.219042],[25.044269,60.219057],[25.044234,60.21908],[25.044189,60.219114],[25.044151,60.219138],[25.044103,60.219159],[25.044048,60.219178],[25.043977,60.219192],[25.043925,60.219197],[25.043868,60.219198],[25.043801,60.219196],[25.043741,60.219191],[25.04369,60.219188],[25.043623,60.219191],[25.043508,60.2192]],[[25.043289,60.218925],[25.043354,60.219005],[25.0434,60.219063],[25.043424,60.219093],[25.04347,60.219151],[25.043508,60.2192]],[[25.043289,60.218925],[25.043301,60.218912],[25.043305,60.218899],[25.043317,60.218882],[25.04334,60.218858],[25.043372,60.218835],[25.043402,60.218818]],[[25.043402,60.218818],[25.043467,60.218793],[25.04363,60.218762],[25.043759,60.218742],[25.043861,60.218725],[25.043936,60.21872],[25.043986,60.218719],[25.044052,60.218726],[25.044111,60.218733],[25.044171,60.218734]],[[25.044171,60.218734],[25.044232,60.218732],[25.044495,60.218707],[25.04468,60.218688],[25.044908,60.218665],[25.046264,60.218472],[25.046773,60.218394],[25.047703,60.218229]],[[25.047703,60.218229],[25.047942,60.218194],[25.048034,60.218182]],[[25.048034,60.218182],[25.048328,60.218138],[25.048483,60.218114],[25.04863,60.218082],[25.048706,60.218071],[25.049018,60.218026],[25.049181,60.218014],[25.049291,60.218009],[25.050104,60.217913],[25.050321,60.217884],[25.050631,60.217841],[25.051108,60.217758],[25.051559,60.21767],[25.052019,60.217576],[25.05246,60.217472],[25.052903,60.21736],[25.053426,60.217213],[25.053992,60.217047],[25.054431,60.2169],[25.054892,60.216734],[25.055373,60.216561],[25.055876,60.216375],[25.056221,60.216239],[25.056534,60.216094],[25.056776,60.21596],[25.05707,60.215783],[25.057207,60.215703],[25.05739,60.215572],[25.057514,60.215481],[25.057576,60.215428]],[[25.057576,60.215428],[25.057716,60.215375],[25.057866,60.215351]],[[25.057866,60.215351],[25.057945,60.215282],[25.05797,60.215259],[25.058065,60.215178]],[[25.058065,60.215178],[25.058146,60.215099]],[[25.058146,60.215099],[25.05828,60.215136],[25.05834,60.215148],[25.058458,60.215172]],[[25.058458,60.215172],[25.058535,60.21519],[25.058645,60.215211],[25.058871,60.215255]],[[25.058871,60.215255],[25.059163,60.215274]],[[25.042536,60.219337],[25.042514,60.219285],[25.042499,60.219252],[25.042485,60.219225],[25.042482,60.219206],[25.042485,60.219192],[25.042493,60.219181],[25.042518,60.219168],[25.042575,60.21915],[25.042889,60.219049],[25.04318,60.218958],[25.043211,60.21895],[25.043268,60.218935],[25.043289,60.218925]],[[25.036532,60.220626],[25.03958,60.21999],[25.040234,60.219849],[25.040477,60.219802],[25.040736,60.219759],[25.04105,60.219709],[25.041185,60.21969],[25.041474,60.21965],[25.04187,60.21959],[25.041998,60.219567],[25.042114,60.219537],[25.042237,60.219498],[25.042334,60.219459],[25.0424,60.219431],[25.042477,60.219391],[25.042517,60.219363],[25.042536,60.219337]],[[25.058146,60.215099],[25.05828,60.215136],[25.05834,60.215148],[25.058458,60.215172]],[[25.058458,60.215172],[25.058535,60.21519],[25.058645,60.215211],[25.058871,60.215255]],[[25.058451,60.215264],[25.058372,60.215245]],[[25.058372,60.215245],[25.05832,60.215285],[25.058259,60.215333]],[[25.058259,60.215333],[25.058172,60.215398]],[[25.058172,60.215398],[25.058194,60.215492],[25.058174,60.215528]],[[25.058174,60.215528],[25.058137,60.215557],[25.058049,60.215614],[25.057875,60.215731],[25.057828,60.215764],[25.057655,60.215817],[25.057301,60.216018],[25.057125,60.216114],[25.056968,60.216198],[25.056842,60.216259],[25.056656,60.216341],[25.05651,60.216405],[25.056325,60.216487],[25.055934,60.216641],[25.055346,60.216854],[25.054738,60.217081],[25.054112,60.217276],[25.053449,60.217477],[25.052906,60.217614],[25.052627,60.217686],[25.052326,60.217757],[25.051808,60.217869],[25.051147,60.217992],[25.050119,60.218162]],[[25.068019,60.213132],[25.068153,60.213136],[25.068406,60.213147],[25.068739,60.213159],[25.069051,60.213172],[25.069179,60.21318],[25.069342,60.213215]],[[25.069342,60.213215],[25.069679,60.213308],[25.070297,60.213478],[25.071264,60.213744],[25.071461,60.213799],[25.071592,60.213834]]]}},{"type":"Feature","properties":{"name":"Viikinbaana"},"geometry":{"type":"MultiLineString","coordinates":[[[25.008098,60.225921],[25.008098,60.225901],[25.00808,60.225867],[25.00807,60.225848],[25.008058,60.225827],[25.008047,60.225805],[25.008034,60.225781],[25.008015,60.225745]],[[25.006739,60.226488],[25.007026,60.226376],[25.007258,60.226287],[25.007559,60.226166],[25.007795,60.226072],[25.007956,60.22601],[25.008046,60.225969],[25.008075,60.225953],[25.008094,60.225934],[25.008098,60.225921]],[[25.004794,60.227188],[25.004916,60.227153],[25.005097,60.227093],[25.005471,60.226965],[25.005902,60.22681],[25.006739,60.226488]],[[25.003913,60.227394],[25.004108,60.227345],[25.004541,60.227247],[25.004794,60.227188]],[[25.003913,60.227394],[25.003494,60.22751],[25.003219,60.227594],[25.002979,60.227673],[25.002591,60.227808],[25.002272,60.227931],[25.00192,60.228079]],[[25.001229,60.228301],[25.001312,60.228261],[25.001392,60.228234],[25.001479,60.2282],[25.001565,60.228175],[25.001654,60.22815],[25.001777,60.22812],[25.001814,60.228108],[25.00192,60.228079]],[[25.001229,60.228301],[25.001037,60.228412],[25.000543,60.228698],[24.998965,60.229632],[24.998598,60.22983]],[[24.998598,60.22983],[24.998428,60.229922],[24.998295,60.229989],[24.998033,60.230112],[24.997991,60.230132]],[[24.997991,60.230132],[24.997756,60.230253]],[[24.997756,60.230253],[24.997382,60.230394],[24.997052,60.230505],[24.996519,60.230655],[24.996038,60.230776],[24.995754,60.230831],[24.995472,60.23088],[24.99501,60.230953],[24.994793,60.230981],[24.994348,60.231037],[24.994209,60.231055],[24.994021,60.231083]],[[24.994021,60.231083],[24.993839,60.2311],[24.993537,60.231119],[24.993286,60.231133],[24.993051,60.231143],[24.992678,60.23115],[24.992322,60.231151],[24.991338,60.231132],[24.990982,60.231125]],[[24.990982,60.231125],[24.98863,60.231078]],[[24.98863,60.231078],[24.987154,60.231047],[24.986943,60.231042],[24.985996,60.231022],[24.984899,60.230995],[24.984175,60.230974],[24.982529,60.230929],[24.981866,60.230929],[24.980795,60.230949],[24.980298,60.230972],[24.980012,60.230987],[24.979731,60.230979]],[[24.977173,60.231144],[24.977369,60.231132],[24.977967,60.231094],[24.978332,60.231075],[24.978664,60.231036],[24.979731,60.230979]],[[24.976517,60.23118],[24.977173,60.231144]],[[24.974226,60.231117],[24.974496,60.23115],[24.974986,60.231181],[24.975261,60.231195],[24.975478,60.2312],[24.975719,60.231201],[24.975959,60.231196],[24.976246,60.23119],[24.976517,60.23118]],[[24.973501,60.230996],[24.973612,60.231018],[24.973728,60.23104],[24.973853,60.231064],[24.973972,60.231085],[24.974104,60.231106],[24.974226,60.231117]],[[24.972296,60.230611],[24.972459,60.230684],[24.972599,60.230751],[24.972755,60.230811],[24.972928,60.230865],[24.973095,60.230911],[24.973356,60.230971],[24.973501,60.230996]],[[24.972296,60.230611],[24.972167,60.230674],[24.972124,60.230695],[24.971924,60.23079]]]}},{"type":"Feature","properties":{"name":"Vuosaarenbaana","ref":"11"},"geometry":{"type":"MultiLineString","coordinates":[[[25.103938,60.208312],[25.103896,60.208301],[25.103862,60.208288],[25.103824,60.208276],[25.103346,60.208202],[25.102855,60.208128],[25.102579,60.20809],[25.102165,60.208045],[25.101719,60.208008],[25.101302,60.207984],[25.101103,60.207977],[25.10081,60.207971],[25.100326,60.207973],[25.100223,60.207981],[25.100164,60.207999],[25.100106,60.20803]],[[25.104077,60.208331],[25.104024,60.208325],[25.103966,60.208317],[25.103938,60.208312]],[[25.10434,60.208355],[25.104228,60.208346],[25.104112,60.208336],[25.104077,60.208331]],[[25.105422,60.208421],[25.105071,60.208405],[25.104701,60.208384],[25.104437,60.208365],[25.10434,60.208355]],[[25.107894,60.208142],[25.107651,60.208209],[25.107441,60.20826],[25.107208,60.208305],[25.106845,60.208358],[25.1065,60.208398],[25.106117,60.20843],[25.105982,60.208433],[25.10577,60.208432],[25.105583,60.208427],[25.105422,60.208421]],[[25.11467,60.206389],[25.107894,60.208142]],[[25.116445,60.206193],[25.116379,60.206167],[25.116291,60.206137],[25.116128,60.206099],[25.11604,60.206091],[25.115964,60.206094],[25.115894,60.206104],[25.115455,60.206193],[25.115057,60.206292],[25.11467,60.206389]],[[25.116445,60.206193],[25.116634,60.206271]],[[25.117004,60.206373],[25.116901,60.206361],[25.116768,60.206329],[25.116701,60.206304],[25.116634,60.206271]],[[25.117004,60.206373],[25.117137,60.206374],[25.117272,60.206354],[25.117377,60.206321]],[[25.117377,60.206321],[25.117482,60.206268],[25.117545,60.206245],[25.11767,60.206214],[25.117785,60.206192],[25.119428,60.205877]],[[25.119428,60.205877],[25.119877,60.205808]],[[25.119877,60.205808],[25.120165,60.205756],[25.120215,60.205747]],[[25.120215,60.205747],[25.120759,60.205644]],[[25.120759,60.205644],[25.122335,60.205362]]]}}]}