{"type":"FeatureCollection","features":[{"type":"Feature","properties":{"amenity":"bicycle_repair_station","id":"node/3714870328"},"geometry":{"type":"Point","coordinates":[24.693335,60.159504]}},{"type":"Feature","properties":{"addr:city":"Espoo","addr:housenumber":"18","addr:street":"Otakaari","amenity":"bicycle_repair_station","name":"Ossin linna bike fix","opening_hours":"24/7","operator":"AYY","service:bicycle:diy":"yes","service:bicycle:pump":"yes","service:bicycle:repair":"yes","id":"node/4989864566"},"geometry":{"type":"Point","coordinates":[24.83562,60.187897]}},{"type":"Feature","properties":{"amenity":"bicycle_repair_station","id":"node/5916028321"},"geometry":{"type":"Point","coordinates":[24.936788,60.198737]}},{"type":"Feature","properties":{"amenity":"bicycle_repair_station","operator":"HKL","service:bicycle:chain_tool":"no","service:bicycle:diy":"yes","service:bicycle:pump":"yes","service:bicycle:stand":"yes","service:bicycle:tools":"yes","id":"node/7562534176"},"geometry":{"type":"Point","coordinates":[25.120262,60.205567]}},{"type":"Feature","properties":{"amenity":"bicycle_repair_station","operator":"HKL","service:bicycle:diy":"yes","service:bicycle:pump":"yes","id":"node/7563151886"},"geometry":{"type":"Point","coordinates":[25.091379,60.214715]}},{"type":"Feature","properties":{"amenity":"bicycle_repair_station","service:bicycle:pump":"yes","service:bicycle:tools":"yes","id":"node/8688897983"},"geometry":{"type":"Point","coordinates":[24.891377,60.262292]}},{"type":"Feature","properties":{"amenity":"bicycle_repair_station","operator":"HKL","service:bicycle:pump":"yes","service:bicycle:stand":"yes","service:bicycle:tools":"yes","id":"node/8704569550"},"geometry":{"type":"Point","coordinates":[24.740396,60.160001]}},{"type":"Feature","properties":{"amenity":"bicycle_repair_station","service:bicycle:pump":"yes","service:bicycle:tools":"yes","id":"node/8901701374"},"geometry":{"type":"Point","coordinates":[24.773748,60.154441]}},{"type":"Feature","properties":{"amenity":"bicycle_repair_station","opening_hours":"24/7","service:bicycle:chain_tool":"no","service:bicycle:pump":"no","service:bicycle:stand":"yes","service:bicycle:tools":"no","id":"node/9024554239"},"geometry":{"type":"Point","coordinates":[24.976422,60.192025]}},{"type":"Feature","properties":{"amenity":"bicycle_repair_station","opening_hours":"Mo-Su 06:00-23:00","service:bicycle:chain_tool":"no","service:bicycle:pump":"yes","service:bicycle:stand":"yes","service:bicycle:tools":"yes","id":"node/9210400236"},"geometry":{"type":"Point","coordinates":[24.931693,60.19784]}},{"type":"Feature","properties":{"amenity":"bicycle_repair_station","service:bicycle:chain_tool":"no","service:bicycle:pump":"yes","service:bicycle:stand":"yes","service:bicycle:tools":"yes","id":"node/9212065403"},"geometry":{"type":"Point","coordinates":[24.813242,60.218911]}},{"type":"Feature","properties":{"amenity":"bicycle_repair_station","service:bicycle:chain_tool":"no","service:bicycle:pump":"no","service:bicycle:stand":"no","service:bicycle:tools":"yes","id":"node/9423738033"},"geometry":{"type":"Point","coordinates":[24.780105,60.174476]}},{"type":"Feature","properties":{"amenity":"bicycle_repair_station","service:bicycle:pump":"yes","id":"node/9423743426"},"geometry":{"type":"Point","coordinates":[24.761813,60.170677]}},{"type":"Feature","properties":{"amenity":"bicycle_repair_station","service:bicycle:chain_tool":"no","service:bicycle:pump":"yes","service:bicycle:stand":"no","service:bicycle:tools":"no","id":"node/9535419377"},"geometry":{"type":"Point","coordinates":[24.68871,60.223059]}},{"type":"Feature","properties":{"amenity":"bicycle_repair_station","opening_hours":"Mo-Su 06:00-23:00","service:bicycle:cleaning":"yes","service:bicycle:pump":"yes","service:bicycle:tools":"yes","id":"node/9600965248"},"geometry":{"type":"Point","coordinates":[24.931374,60.19804]}},{"type":"Feature","properties":{"amenity":"bicycle_repair_station","operator":"Motonet","service:bicycle:chain_tool":"no","service:bicycle:pump":"yes","service:bicycle:stand":"yes","service:bicycle:tools":"yes","id":"node/9689935847"},"geometry":{"type":"Point","coordinates":[24.66474,60.221412]}},{"type":"Feature","properties":{"amenity":"bicycle_repair_station","opening_hours":"24/7","operator":"Posti","service:bicycle:diy":"yes","service:bicycle:pump":"yes","service:bicycle:tools":"yes","id":"node/9791791079"},"geometry":{"type":"Point","coordinates":[24.917213,60.212511]}},{"type":"Feature","properties":{"amenity":"bicycle_repair_station","operator":"HKL","service:bicycle:chain_tool":"no","service:bicycle:pump":"yes","service:bicycle:stand":"yes","service:bicycle:tools":"yes","id":"node/9837391628"},"geometry":{"type":"Point","coordinates":[24.855169,60.163433]}},{"type":"Feature","properties":{"amenity":"bicycle_repair_station","opening_hours":"24/7","operator":"Kaupunkiliikenne Oy","service:bicycle:chain_tool":"no","service:bicycle:diy":"yes","service:bicycle:pump":"yes","service:bicycle:stand":"yes","service:bicycle:tools":"yes","id":"node/9889611933"},"geometry":{"type":"Point","coordinates":[25.031622,60.195252]}},{"type":"Feature","properties":{"amenity":"bicycle_repair_station","id":"node/10030147992"},"geometry":{"type":"Point","coordinates":[24.933916,60.168099]}},{"type":"Feature","properties":{"amenity":"bicycle_repair_station","name":"Polkupyörien pesupaikka 1. krs","service:bicycle:cleaning":"yes","id":"node/10578450462"},"geometry":{"type":"Point","coordinates":[24.931649,60.197835]}},{"type":"Feature","properties":{"amenity":"bicycle_repair_station","operator":"Kaupunkiliikenne Oy","service:bicycle:diy":"yes","service:bicycle:pump":"yes","service:bicycle:stand":"yes","service:bicycle:tools":"yes","id":"node/11056661689"},"geometry":{"type":"Point","coordinates":[25.006765,60.188746]}},{"type":"Feature","properties":{"amenity":"bicycle_repair_station","service:bicycle:chain_tool":"no","service:bicycle:pump":"no","service:bicycle:stand":"yes","service:bicycle:tools":"yes","id":"node/11092888859"},"geometry":{"type":"Point","coordinates":[24.802504,60.174739]}},{"type":"Feature","properties":{"amenity":"bicycle_repair_station","opening_hours":"24/7","operator":"Kaupunkiliikenne Oy","service:bicycle:pump":"yes","service:bicycle:pump:operational_status":"operational","service:bicycle:stand":"yes","service:bicycle:tools":"yes","id":"node/11165701394"},"geometry":{"type":"Point","coordinates":[25.044928,60.205919]}},{"type":"Feature","properties":{"amenity":"bicycle_repair_station","service:bicycle:chain_tool":"yes","service:bicycle:pump":"yes","service:bicycle:screwdriver":"yes","service:bicycle:stand":"yes","service:bicycle:tools":"yes","id":"node/11643255958"},"geometry":{"type":"Point","coordinates":[24.855034,60.261442]}},{"type":"Feature","properties":{"amenity":"bicycle_repair_station","service:bicycle:chain_tool":"no","service:bicycle:pump":"yes","service:bicycle:stand":"no","service:bicycle:tools":"no","id":"node/11773830418"},"geometry":{"type":"Point","coordinates":[24.827733,60.184555]}},{"type":"Feature","properties":{"amenity":"bicycle_repair_station","service:bicycle:chain_tool":"no","service:bicycle:pump":"no","service:bicycle:stand":"yes","service:bicycle:tools":"yes","id":"node/11773835928"},"geometry":{"type":"Point","coordinates":[24.830494,60.183991]}},{"type":"Feature","properties":{"amenity":"bicycle_repair_station","service:bicycle:pump":"yes","service:bicycle:tools":"yes","id":"node/11848085927"},"geometry":{"type":"Point","coordinates":[24.890023,60.236597]}},{"type":"Feature","properties":{"amenity":"bicycle_repair_station","service:bicycle:pump":"yes","id":"node/11854276588"},"geometry":{"type":"Point","coordinates":[24.854047,60.270338]}},{"type":"Feature","properties":{"amenity":"bicycle_repair_station","service:bicycle:chain_tool":"no","service:bicycle:pump":"no","service:bicycle:stand":"no","service:bicycle:tools":"yes","id":"node/11874345566"},"geometry":{"type":"Point","coordinates":[24.697074,60.176726]}},{"type":"Feature","properties":{"amenity":"bicycle_repair_station","service:bicycle:chain_tool":"no","service:bicycle:pump":"yes","service:bicycle:stand":"yes","service:bicycle:tools":"yes","id":"node/11876895424"},"geometry":{"type":"Point","coordinates":[24.894663,60.21794]}},{"type":"Feature","properties":{"amenity":"bicycle_repair_station","service:bicycle:pump":"yes","service:bicycle:stand":"yes","service:bicycle:tools":"yes","id":"node/11887365851"},"geometry":{"type":"Point","coordinates":[25.035266,60.274836]}},{"type":"Feature","properties":{"amenity":"bicycle_repair_station","id":"node/11939965759"},"geometry":{"type":"Point","coordinates":[25.048657,60.30325]}},{"type":"Feature","properties":{"amenity":"bicycle_repair_station","service:bicycle:pump":"yes","service:bicycle:pump:operational_status":"operational","service:bicycle:tools":"no","id":"node/12146570302"},"geometry":{"type":"Point","coordinates":[24.711018,60.243805]}},{"type":"Feature","properties":{"amenity":"bicycle_repair_station","operator":"Pääkaupunkiseudun Kaupunkiliikenne Oy","service:bicycle:chain_tool":"no","service:bicycle:pump":"yes","service:bicycle:stand":"yes","service:bicycle:tools":"yes","id":"node/12302328374"},"geometry":{"type":"Point","coordinates":[24.967392,60.228494]}},{"type":"Feature","properties":{"amenity":"bicycle_repair_station","service:bicycle:chain_tool":"no","service:bicycle:pump":"yes","service:bicycle:stand":"no","service:bicycle:tools":"no","id":"node/12441484882"},"geometry":{"type":"Point","coordinates":[24.960925,60.187723]}},{"type":"Feature","properties":{"amenity":"bicycle_repair_station","service:bicycle:chain_tool":"no","service:bicycle:pump":"yes","service:bicycle:stand":"yes","service:bicycle:tools":"yes","id":"node/12716133665"},"geometry":{"type":"Point","coordinates":[24.708429,60.215974]}},{"type":"Feature","properties":{"amenity":"bicycle_repair_station","service:bicycle:chain_tool":"no","service:bicycle:pump":"yes","service:bicycle:stand":"yes","service:bicycle:tools":"no","id":"node/12734273676"},"geometry":{"type":"Point","coordinates":[25.109285,60.238613]}},{"type":"Feature","properties":{"amenity":"bicycle_repair_station","service:bicycle:chain_tool":"no","service:bicycle:pump":"yes","service:bicycle:stand":"yes","service:bicycle:tools":"yes","id":"node/12762847859"},"geometry":{"type":"Point","coordinates":[24.93271,60.230793]}},{"type":"Feature","properties":{"amenity":"bicycle_repair_station","opening_hours":"24/7","operator":"Kauniaisten kaupunki","service:bicycle:pump":"yes","id":"node/13629709368"},"geometry":{"type":"Point","coordinates":[24.728367,60.21073]}}]}